{"type":"FeatureCollection","features":[{"type":"Feature","geometry":{"type":"Point","coordinates":[-122.2555785,37.79708784]},"properties":{"id":2618202,"type":"Inlet"}},{"type":"Feature","geometry":{"type":"Point","coordinates":[-122.26712382,37.79683506]},"properties":{"id":2617181,"type":"Inlet"}},{"type":"Feature","geometry":{"type":"Point","coordinates":[-122.2606715,37.79683817]},"properties":{"id":2618205,"type":"Inlet"}},{"type":"Feature","geometry":{"type":"Point","coordinates":[-122.26693632,37.79673829]},"properties":{"id":2617183,"type":"Inlet"}},{"type":"Feature","geometry":{"type":"Point","coordinates":[-122.25563608,37.79593607]},"properties":{"id":2618216,"type":"Inlet"}},{"type":"Feature","geometry":{"type":"Point","coordinates":[-122.25754759,37.79589455]},"properties":{"id":2618217,"type":"Inlet"}},{"type":"Feature","geometry":{"type":"Point","coordinates":[-122.27082774,37.79567458]},"properties":{"id":2617205,"type":"Inlet"}},{"type":"Feature","geometry":{"type":"Point","coordinates":[-122.27077237,37.79567542]},"properties":{"id":2617206,"type":"Inlet"}},{"type":"Feature","geometry":{"type":"Point","coordinates":[-122.25923012,37.79583101]},"properties":{"id":2618218,"type":"Inlet"}},{"type":"Feature","geometry":{"type":"Point","coordinates":[-122.27059864,37.79564781]},"properties":{"id":2617208,"type":"Inlet"}},{"type":"Feature","geometry":{"type":"Point","coordinates":[-122.26006667,37.79578282]},"properties":{"id":2618220,"type":"Inlet"}},{"type":"Feature","geometry":{"type":"Point","coordinates":[-122.26792061,37.79351732]},"properties":{"id":2517116,"type":"Inlet"}},{"type":"Feature","geometry":{"type":"Point","coordinates":[-122.25964378,37.79364043]},"properties":{"id":2518111,"type":"Inlet"}},{"type":"Feature","geometry":{"type":"Point","coordinates":[-122.27230291,37.79345016]},"properties":{"id":2517117,"type":"Inlet"}},{"type":"Feature","geometry":{"type":"Point","coordinates":[-122.26684763,37.80995866]},"properties":{"id":2817120,"type":"Inlet"}},{"type":"Feature","geometry":{"type":"Point","coordinates":[-122.26655249,37.80992257]},"properties":{"id":2817123,"type":"Inlet"}},{"type":"Feature","geometry":{"type":"Point","coordinates":[-122.26575885,37.80988913]},"properties":{"id":2817126,"type":"Inlet"}},{"type":"Feature","geometry":{"type":"Point","coordinates":[-122.27147429,37.80978969]},"properties":{"id":2817127,"type":"Inlet"}},{"type":"Feature","geometry":{"type":"Point","coordinates":[-122.26969328,37.80972921]},"properties":{"id":2817129,"type":"Inlet"}},{"type":"Feature","geometry":{"type":"Point","coordinates":[-122.26965844,37.80972012]},"properties":{"id":2817130,"type":"Inlet"}},{"type":"Feature","geometry":{"type":"Point","coordinates":[-122.25561854,37.80990797]},"properties":{"id":2818121,"type":"Inlet"}},{"type":"Feature","geometry":{"type":"Point","coordinates":[-122.26263992,37.80940015]},"properties":{"id":2818123,"type":"Inlet"}},{"type":"Feature","geometry":{"type":"Point","coordinates":[-122.268203,37.80930109]},"properties":{"id":2817146,"type":"Inlet"}},{"type":"Feature","geometry":{"type":"Point","coordinates":[-122.26797828,37.80924197]},"properties":{"id":2817151,"type":"Inlet"}},{"type":"Feature","geometry":{"type":"Point","coordinates":[-122.26416008,37.80810016]},"properties":{"id":2817190,"type":"Inlet"}},{"type":"Feature","geometry":{"type":"Point","coordinates":[-122.26343413,37.80800046]},"properties":{"id":2817192,"type":"Inlet"}},{"type":"Feature","geometry":{"type":"Point","coordinates":[-122.26459804,37.80795489]},"properties":{"id":2817193,"type":"Inlet"}},{"type":"Feature","geometry":{"type":"Point","coordinates":[-122.26311029,37.80923381]},"properties":{"id":2817153,"type":"Inlet"}},{"type":"Feature","geometry":{"type":"Point","coordinates":[-122.26258312,37.80919499]},"properties":{"id":2818125,"type":"Inlet"}},{"type":"Feature","geometry":{"type":"Point","coordinates":[-122.27302044,37.80900422]},"properties":{"id":2817154,"type":"Inlet"}},{"type":"Feature","geometry":{"type":"Point","coordinates":[-122.26990877,37.80903791]},"properties":{"id":2817155,"type":"Inlet"}},{"type":"Feature","geometry":{"type":"Point","coordinates":[-122.26991908,37.80896221]},"properties":{"id":2817157,"type":"Inlet"}},{"type":"Feature","geometry":{"type":"Point","coordinates":[-122.26888081,37.80767031]},"properties":{"id":2817205,"type":"Inlet"}},{"type":"Feature","geometry":{"type":"Point","coordinates":[-122.26901947,37.80760505]},"properties":{"id":2817207,"type":"Inlet"}},{"type":"Feature","geometry":{"type":"Point","coordinates":[-122.27024422,37.80757019]},"properties":{"id":2817208,"type":"Inlet"}},{"type":"Feature","geometry":{"type":"Point","coordinates":[-122.26364042,37.80750295]},"properties":{"id":2817210,"type":"Inlet"}},{"type":"Feature","geometry":{"type":"Point","coordinates":[-122.26840302,37.80737876]},"properties":{"id":2817211,"type":"Inlet"}},{"type":"Feature","geometry":{"type":"Point","coordinates":[-122.27226233,37.80697816]},"properties":{"id":2817216,"type":"Inlet"}},{"type":"Feature","geometry":{"type":"Point","coordinates":[-122.26336484,37.8070511]},"properties":{"id":2817218,"type":"Inlet"}},{"type":"Feature","geometry":{"type":"Point","coordinates":[-122.26749274,37.80571685]},"properties":{"id":2817261,"type":"Inlet"}},{"type":"Feature","geometry":{"type":"Point","coordinates":[-122.26748279,37.80566206]},"properties":{"id":2817264,"type":"Inlet"}},{"type":"Feature","geometry":{"type":"Point","coordinates":[-122.26725196,37.80563668]},"properties":{"id":2817265,"type":"Inlet"}},{"type":"Feature","geometry":{"type":"Point","coordinates":[-122.2632055,37.80544385]},"properties":{"id":2817271,"type":"Inlet"}},{"type":"Feature","geometry":{"type":"Point","coordinates":[-122.26307468,37.80532906]},"properties":{"id":2817272,"type":"Inlet"}},{"type":"Feature","geometry":{"type":"Point","coordinates":[-122.26188785,37.80520946]},"properties":{"id":2818155,"type":"Inlet"}},{"type":"Feature","geometry":{"type":"Point","coordinates":[-122.26199417,37.80509457]},"properties":{"id":2818156,"type":"Inlet"}},{"type":"Feature","geometry":{"type":"Point","coordinates":[-122.26931709,37.80469446]},"properties":{"id":2717249,"type":"Inlet"}},{"type":"Feature","geometry":{"type":"Point","coordinates":[-122.26951285,37.80477392]},"properties":{"id":2717101,"type":"Inlet"}},{"type":"Feature","geometry":{"type":"Point","coordinates":[-122.27169329,37.80460385]},"properties":{"id":2717103,"type":"Inlet"}},{"type":"Feature","geometry":{"type":"Point","coordinates":[-122.27065103,37.79820774]},"properties":{"id":2617140,"type":"Inlet"}},{"type":"Feature","geometry":{"type":"Point","coordinates":[-122.2571497,37.79838909]},"properties":{"id":2618153,"type":"Inlet"}},{"type":"Feature","geometry":{"type":"Point","coordinates":[-122.26237105,37.7966885]},"properties":{"id":2618206,"type":"Inlet"}},{"type":"Feature","geometry":{"type":"Point","coordinates":[-122.27291077,37.79651059]},"properties":{"id":2617184,"type":"Inlet"}},{"type":"Feature","geometry":{"type":"Point","coordinates":[-122.26440983,37.796612]},"properties":{"id":2617337,"type":"Inlet"}},{"type":"Feature","geometry":{"type":"Point","coordinates":[-122.2687866,37.79652308]},"properties":{"id":2617188,"type":"Inlet"}},{"type":"Feature","geometry":{"type":"Point","coordinates":[-122.26011762,37.79661777]},"properties":{"id":2618207,"type":"Inlet"}},{"type":"Feature","geometry":{"type":"Point","coordinates":[-122.26019098,37.79649994]},"properties":{"id":2618209,"type":"Inlet"}},{"type":"Feature","geometry":{"type":"Point","coordinates":[-122.27031753,37.79634354]},"properties":{"id":2617190,"type":"Inlet"}},{"type":"Feature","geometry":{"type":"Point","coordinates":[-122.25533446,37.79723431]},"properties":{"id":2618197,"type":"Inlet"}},{"type":"Feature","geometry":{"type":"Point","coordinates":[-122.26548707,37.79707794]},"properties":{"id":2617177,"type":"Inlet"}},{"type":"Feature","geometry":{"type":"Point","coordinates":[-122.25769643,37.79706385]},"properties":{"id":2618201,"type":"Inlet"}},{"type":"Feature","geometry":{"type":"Point","coordinates":[-122.27233431,37.79338788]},"properties":{"id":2517118,"type":"Inlet"}},{"type":"Feature","geometry":{"type":"Point","coordinates":[-122.26924968,37.79336691]},"properties":{"id":2517119,"type":"Inlet"}},{"type":"Feature","geometry":{"type":"Point","coordinates":[-122.26908182,37.79329526]},"properties":{"id":2517121,"type":"Inlet"}},{"type":"Feature","geometry":{"type":"Point","coordinates":[-122.27180998,37.79324606]},"properties":{"id":2517122,"type":"Inlet"}},{"type":"Feature","geometry":{"type":"Point","coordinates":[-122.25960243,37.79342886]},"properties":{"id":2518117,"type":"Inlet"}},{"type":"Feature","geometry":{"type":"Point","coordinates":[-122.26841918,37.80892909]},"properties":{"id":2817159,"type":"Inlet"}},{"type":"Feature","geometry":{"type":"Point","coordinates":[-122.26823367,37.80884466]},"properties":{"id":2817160,"type":"Inlet"}},{"type":"Feature","geometry":{"type":"Point","coordinates":[-122.26707069,37.8087117]},"properties":{"id":2817161,"type":"Inlet"}},{"type":"Feature","geometry":{"type":"Point","coordinates":[-122.2632133,37.8087605]},"properties":{"id":2817162,"type":"Inlet"}},{"type":"Feature","geometry":{"type":"Point","coordinates":[-122.27086348,37.793182]},"properties":{"id":2517125,"type":"Inlet"}},{"type":"Feature","geometry":{"type":"Point","coordinates":[-122.27066977,37.79311486]},"properties":{"id":2517127,"type":"Inlet"}},{"type":"Feature","geometry":{"type":"Point","coordinates":[-122.26646182,37.79316218]},"properties":{"id":2517128,"type":"Inlet"}},{"type":"Feature","geometry":{"type":"Point","coordinates":[-122.26628724,37.79309887]},"properties":{"id":2517130,"type":"Inlet"}},{"type":"Feature","geometry":{"type":"Point","coordinates":[-122.2602271,37.79313181]},"properties":{"id":2518120,"type":"Inlet"}},{"type":"Feature","geometry":{"type":"Point","coordinates":[-122.27252532,37.79290707]},"properties":{"id":2517131,"type":"Inlet"}},{"type":"Feature","geometry":{"type":"Point","coordinates":[-122.26388332,37.79302704]},"properties":{"id":2517132,"type":"Inlet"}},{"type":"Feature","geometry":{"type":"Point","coordinates":[-122.2681315,37.79292496]},"properties":{"id":2517133,"type":"Inlet"}},{"type":"Feature","geometry":{"type":"Point","coordinates":[-122.25748261,37.79307592]},"properties":{"id":2518122,"type":"Inlet"}},{"type":"Feature","geometry":{"type":"Point","coordinates":[-122.25784389,37.79305748]},"properties":{"id":2518123,"type":"Inlet"}},{"type":"Feature","geometry":{"type":"Point","coordinates":[-122.25596698,37.79302227]},"properties":{"id":2518124,"type":"Inlet"}},{"type":"Feature","geometry":{"type":"Point","coordinates":[-122.26942297,37.79279503]},"properties":{"id":2517137,"type":"Inlet"}},{"type":"Feature","geometry":{"type":"Point","coordinates":[-122.27089372,37.79517573]},"properties":{"id":2617224,"type":"Inlet"}},{"type":"Feature","geometry":{"type":"Point","coordinates":[-122.26525521,37.79518748]},"properties":{"id":2617226,"type":"Inlet"}},{"type":"Feature","geometry":{"type":"Point","coordinates":[-122.27125108,37.79499251]},"properties":{"id":2617230,"type":"Inlet"}},{"type":"Feature","geometry":{"type":"Point","coordinates":[-122.27098412,37.79497454]},"properties":{"id":2617232,"type":"Inlet"}},{"type":"Feature","geometry":{"type":"Point","coordinates":[-122.25643237,37.79513725]},"properties":{"id":2618228,"type":"Inlet"}},{"type":"Feature","geometry":{"type":"Point","coordinates":[-122.26508988,37.79500386]},"properties":{"id":2617233,"type":"Inlet"}},{"type":"Feature","geometry":{"type":"Point","coordinates":[-122.26686486,37.79497179]},"properties":{"id":2617234,"type":"Inlet"}},{"type":"Feature","geometry":{"type":"Point","coordinates":[-122.26336259,37.79500361]},"properties":{"id":2617236,"type":"Inlet"}},{"type":"Feature","geometry":{"type":"Point","coordinates":[-122.27306152,37.79485062]},"properties":{"id":2617237,"type":"Inlet"}},{"type":"Feature","geometry":{"type":"Point","coordinates":[-122.26659728,37.79492773]},"properties":{"id":2617239,"type":"Inlet"}},{"type":"Feature","geometry":{"type":"Point","coordinates":[-122.25502611,37.79239009]},"properties":{"id":2518140,"type":"Inlet"}},{"type":"Feature","geometry":{"type":"Point","coordinates":[-122.25741658,37.79196788]},"properties":{"id":2518155,"type":"Inlet"}},{"type":"Feature","geometry":{"type":"Point","coordinates":[-122.2672662,37.79176367]},"properties":{"id":2517160,"type":"Inlet"}},{"type":"Feature","geometry":{"type":"Point","coordinates":[-122.26733143,37.79166861]},"properties":{"id":2517161,"type":"Inlet"}},{"type":"Feature","geometry":{"type":"Point","coordinates":[-122.25975517,37.7917675]},"properties":{"id":2518156,"type":"Inlet"}},{"type":"Feature","geometry":{"type":"Point","coordinates":[-122.26709572,37.79165429]},"properties":{"id":2517208,"type":"Inlet"}},{"type":"Feature","geometry":{"type":"Point","coordinates":[-122.25588252,37.79171948]},"properties":{"id":2518159,"type":"Inlet"}},{"type":"Feature","geometry":{"type":"Point","coordinates":[-122.26978564,37.80968251]},"properties":{"id":2817132,"type":"Inlet"}},{"type":"Feature","geometry":{"type":"Point","coordinates":[-122.26943909,37.80966848]},"properties":{"id":2817134,"type":"Inlet"}},{"type":"Feature","geometry":{"type":"Point","coordinates":[-122.26427183,37.80959756]},"properties":{"id":2817137,"type":"Inlet"}},{"type":"Feature","geometry":{"type":"Point","coordinates":[-122.2698162,37.80951175]},"properties":{"id":2817138,"type":"Inlet"}},{"type":"Feature","geometry":{"type":"Point","coordinates":[-122.26975259,37.80945776]},"properties":{"id":2817141,"type":"Inlet"}},{"type":"Feature","geometry":{"type":"Point","coordinates":[-122.26948029,37.80943575]},"properties":{"id":2817143,"type":"Inlet"}},{"type":"Feature","geometry":{"type":"Point","coordinates":[-122.27144343,37.80994741]},"properties":{"id":2817118,"type":"Inlet"}},{"type":"Feature","geometry":{"type":"Point","coordinates":[-122.2562234,37.80905982]},"properties":{"id":2818128,"type":"Inlet"}},{"type":"Feature","geometry":{"type":"Point","coordinates":[-122.26942487,37.80268011]},"properties":{"id":2717145,"type":"Inlet"}},{"type":"Feature","geometry":{"type":"Point","coordinates":[-122.2721306,37.80261957]},"properties":{"id":2717146,"type":"Inlet"}},{"type":"Feature","geometry":{"type":"Point","coordinates":[-122.25599724,37.80732926]},"properties":{"id":2818148,"type":"Inlet"}},{"type":"Feature","geometry":{"type":"Point","coordinates":[-122.2709407,37.802588]},"properties":{"id":2717147,"type":"Inlet"}},{"type":"Feature","geometry":{"type":"Point","coordinates":[-122.26916104,37.80257694]},"properties":{"id":2717149,"type":"Inlet"}},{"type":"Feature","geometry":{"type":"Point","coordinates":[-122.27253131,37.80243844]},"properties":{"id":2717150,"type":"Inlet"}},{"type":"Feature","geometry":{"type":"Point","coordinates":[-122.27088703,37.80236975]},"properties":{"id":2717152,"type":"Inlet"}},{"type":"Feature","geometry":{"type":"Point","coordinates":[-122.26657354,37.80236852]},"properties":{"id":2717156,"type":"Inlet"}},{"type":"Feature","geometry":{"type":"Point","coordinates":[-122.27225466,37.80223315]},"properties":{"id":2717157,"type":"Inlet"}},{"type":"Feature","geometry":{"type":"Point","coordinates":[-122.26821063,37.80220802]},"properties":{"id":2717159,"type":"Inlet"}},{"type":"Feature","geometry":{"type":"Point","coordinates":[-122.27233674,37.80211861]},"properties":{"id":2717160,"type":"Inlet"}},{"type":"Feature","geometry":{"type":"Point","coordinates":[-122.27041164,37.80689608]},"properties":{"id":2817219,"type":"Inlet"}},{"type":"Feature","geometry":{"type":"Point","coordinates":[-122.26680014,37.80687196]},"properties":{"id":2817222,"type":"Inlet"}},{"type":"Feature","geometry":{"type":"Point","coordinates":[-122.27041994,37.80680875]},"properties":{"id":2817223,"type":"Inlet"}},{"type":"Feature","geometry":{"type":"Point","coordinates":[-122.27019131,37.80673046]},"properties":{"id":2817226,"type":"Inlet"}},{"type":"Feature","geometry":{"type":"Point","coordinates":[-122.26656547,37.80675805]},"properties":{"id":2817228,"type":"Inlet"}},{"type":"Feature","geometry":{"type":"Point","coordinates":[-122.27291898,37.80656794]},"properties":{"id":2817232,"type":"Inlet"}},{"type":"Feature","geometry":{"type":"Point","coordinates":[-122.27273737,37.80650132]},"properties":{"id":2817235,"type":"Inlet"}},{"type":"Feature","geometry":{"type":"Point","coordinates":[-122.26957584,37.80654536]},"properties":{"id":2817236,"type":"Inlet"}},{"type":"Feature","geometry":{"type":"Point","coordinates":[-122.26966746,37.80653987]},"properties":{"id":2817237,"type":"Inlet"}},{"type":"Feature","geometry":{"type":"Point","coordinates":[-122.26974429,37.80213832]},"properties":{"id":2717161,"type":"Inlet"}},{"type":"Feature","geometry":{"type":"Point","coordinates":[-122.26539927,37.80190198]},"properties":{"id":2717167,"type":"Inlet"}},{"type":"Feature","geometry":{"type":"Point","coordinates":[-122.27298161,37.80172436]},"properties":{"id":2717170,"type":"Inlet"}},{"type":"Feature","geometry":{"type":"Point","coordinates":[-122.26524184,37.80183292]},"properties":{"id":2717171,"type":"Inlet"}},{"type":"Feature","geometry":{"type":"Point","coordinates":[-122.2727333,37.80161891]},"properties":{"id":2717173,"type":"Inlet"}},{"type":"Feature","geometry":{"type":"Point","coordinates":[-122.26703857,37.80168927]},"properties":{"id":2717174,"type":"Inlet"}},{"type":"Feature","geometry":{"type":"Point","coordinates":[-122.26865521,37.8015428]},"properties":{"id":2717176,"type":"Inlet"}},{"type":"Feature","geometry":{"type":"Point","coordinates":[-122.27009687,37.8014628]},"properties":{"id":2717178,"type":"Inlet"}},{"type":"Feature","geometry":{"type":"Point","coordinates":[-122.26424938,37.80151403]},"properties":{"id":2717179,"type":"Inlet"}},{"type":"Feature","geometry":{"type":"Point","coordinates":[-122.26420935,37.80143222]},"properties":{"id":2717181,"type":"Inlet"}},{"type":"Feature","geometry":{"type":"Point","coordinates":[-122.26585554,37.80129085]},"properties":{"id":2717185,"type":"Inlet"}},{"type":"Feature","geometry":{"type":"Point","coordinates":[-122.27169337,37.8011978]},"properties":{"id":2717186,"type":"Inlet"}},{"type":"Feature","geometry":{"type":"Point","coordinates":[-122.27178122,37.80117999]},"properties":{"id":2717187,"type":"Inlet"}},{"type":"Feature","geometry":{"type":"Point","coordinates":[-122.26581873,37.80119869]},"properties":{"id":2717191,"type":"Inlet"}},{"type":"Feature","geometry":{"type":"Point","coordinates":[-122.27276198,37.80847453]},"properties":{"id":2817165,"type":"Inlet"}},{"type":"Feature","geometry":{"type":"Point","coordinates":[-122.25606413,37.80737633]},"properties":{"id":2818145,"type":"Inlet"}},{"type":"Feature","geometry":{"type":"Point","coordinates":[-122.27009691,37.80843422]},"properties":{"id":2817167,"type":"Inlet"}},{"type":"Feature","geometry":{"type":"Point","coordinates":[-122.26624321,37.80849199]},"properties":{"id":2817168,"type":"Inlet"}},{"type":"Feature","geometry":{"type":"Point","coordinates":[-122.26600764,37.8084859]},"properties":{"id":2817170,"type":"Inlet"}},{"type":"Feature","geometry":{"type":"Point","coordinates":[-122.27013603,37.80833268]},"properties":{"id":2817173,"type":"Inlet"}},{"type":"Feature","geometry":{"type":"Point","coordinates":[-122.27003159,37.80830816]},"properties":{"id":2817175,"type":"Inlet"}},{"type":"Feature","geometry":{"type":"Point","coordinates":[-122.26621692,37.80826028]},"properties":{"id":2817183,"type":"Inlet"}},{"type":"Feature","geometry":{"type":"Point","coordinates":[-122.27340642,37.80813248]},"properties":{"id":2817184,"type":"Inlet"}},{"type":"Feature","geometry":{"type":"Point","coordinates":[-122.26597897,37.80822676]},"properties":{"id":2817185,"type":"Inlet"}},{"type":"Feature","geometry":{"type":"Point","coordinates":[-122.2642448,37.80824173]},"properties":{"id":2817187,"type":"Inlet"}},{"type":"Feature","geometry":{"type":"Point","coordinates":[-122.26484159,37.80822387]},"properties":{"id":2817188,"type":"Inlet"}},{"type":"Feature","geometry":{"type":"Point","coordinates":[-122.2731335,37.80808439]},"properties":{"id":2817189,"type":"Inlet"}},{"type":"Feature","geometry":{"type":"Point","coordinates":[-122.26534601,37.80628669]},"properties":{"id":2817242,"type":"Inlet"}},{"type":"Feature","geometry":{"type":"Point","coordinates":[-122.26543227,37.80627441]},"properties":{"id":2817244,"type":"Inlet"}},{"type":"Feature","geometry":{"type":"Point","coordinates":[-122.27174228,37.80614888]},"properties":{"id":2817246,"type":"Inlet"}},{"type":"Feature","geometry":{"type":"Point","coordinates":[-122.26543473,37.80623248]},"properties":{"id":2817248,"type":"Inlet"}},{"type":"Feature","geometry":{"type":"Point","coordinates":[-122.26845347,37.80615361]},"properties":{"id":2817250,"type":"Inlet"}},{"type":"Feature","geometry":{"type":"Point","coordinates":[-122.27061221,37.80608826]},"properties":{"id":2817251,"type":"Inlet"}},{"type":"Feature","geometry":{"type":"Point","coordinates":[-122.27057303,37.80604215]},"properties":{"id":2817253,"type":"Inlet"}},{"type":"Feature","geometry":{"type":"Point","coordinates":[-122.2624811,37.80606447]},"properties":{"id":2818154,"type":"Inlet"}},{"type":"Feature","geometry":{"type":"Point","coordinates":[-122.26437515,37.80782638]},"properties":{"id":2817197,"type":"Inlet"}},{"type":"Feature","geometry":{"type":"Point","coordinates":[-122.26883408,37.80774311]},"properties":{"id":2817198,"type":"Inlet"}},{"type":"Feature","geometry":{"type":"Point","coordinates":[-122.26919903,37.80773077]},"properties":{"id":2817201,"type":"Inlet"}},{"type":"Feature","geometry":{"type":"Point","coordinates":[-122.27020262,37.80771296]},"properties":{"id":2817202,"type":"Inlet"}},{"type":"Feature","geometry":{"type":"Point","coordinates":[-122.26375488,37.80466996]},"properties":{"id":2717105,"type":"Inlet"}},{"type":"Feature","geometry":{"type":"Point","coordinates":[-122.26356673,37.80454642]},"properties":{"id":2717107,"type":"Inlet"}},{"type":"Feature","geometry":{"type":"Point","coordinates":[-122.26835039,37.80436972]},"properties":{"id":2717110,"type":"Inlet"}},{"type":"Feature","geometry":{"type":"Point","coordinates":[-122.27140367,37.80429094]},"properties":{"id":2717113,"type":"Inlet"}},{"type":"Feature","geometry":{"type":"Point","coordinates":[-122.26810715,37.80433148]},"properties":{"id":2717114,"type":"Inlet"}},{"type":"Feature","geometry":{"type":"Point","coordinates":[-122.26808831,37.80426722]},"properties":{"id":2717116,"type":"Inlet"}},{"type":"Feature","geometry":{"type":"Point","coordinates":[-122.26805663,37.80424572]},"properties":{"id":2717118,"type":"Inlet"}},{"type":"Feature","geometry":{"type":"Point","coordinates":[-122.27118529,37.80413422]},"properties":{"id":2717119,"type":"Inlet"}},{"type":"Feature","geometry":{"type":"Point","coordinates":[-122.26720037,37.80390558]},"properties":{"id":2717120,"type":"Inlet"}},{"type":"Feature","geometry":{"type":"Point","coordinates":[-122.27013357,37.80380048]},"properties":{"id":2717121,"type":"Inlet"}},{"type":"Feature","geometry":{"type":"Point","coordinates":[-122.27179103,37.80376735]},"properties":{"id":2717122,"type":"Inlet"}},{"type":"Feature","geometry":{"type":"Point","coordinates":[-122.27185606,37.80366337]},"properties":{"id":2717124,"type":"Inlet"}},{"type":"Feature","geometry":{"type":"Point","coordinates":[-122.27184222,37.80351868]},"properties":{"id":2717127,"type":"Inlet"}},{"type":"Feature","geometry":{"type":"Point","coordinates":[-122.26866402,37.80336587]},"properties":{"id":2717133,"type":"Inlet"}},{"type":"Feature","geometry":{"type":"Point","coordinates":[-122.26898047,37.80335288]},"properties":{"id":2717135,"type":"Inlet"}},{"type":"Feature","geometry":{"type":"Point","coordinates":[-122.27209579,37.80311933]},"properties":{"id":2717138,"type":"Inlet"}},{"type":"Feature","geometry":{"type":"Point","coordinates":[-122.2705545,37.80308754]},"properties":{"id":2717140,"type":"Inlet"}},{"type":"Feature","geometry":{"type":"Point","coordinates":[-122.27186343,37.80302943]},"properties":{"id":2717141,"type":"Inlet"}},{"type":"Feature","geometry":{"type":"Point","coordinates":[-122.27228631,37.80297912]},"properties":{"id":2717142,"type":"Inlet"}},{"type":"Feature","geometry":{"type":"Point","coordinates":[-122.26778818,37.80293058]},"properties":{"id":2717143,"type":"Inlet"}},{"type":"Feature","geometry":{"type":"Point","coordinates":[-122.26978371,37.80197635]},"properties":{"id":2717163,"type":"Inlet"}},{"type":"Feature","geometry":{"type":"Point","coordinates":[-122.27137972,37.80190844]},"properties":{"id":2717165,"type":"Inlet"}},{"type":"Feature","geometry":{"type":"Point","coordinates":[-122.27189101,37.80106641]},"properties":{"id":2717194,"type":"Inlet"}},{"type":"Feature","geometry":{"type":"Point","coordinates":[-122.27315657,37.80093271]},"properties":{"id":2717196,"type":"Inlet"}},{"type":"Feature","geometry":{"type":"Point","coordinates":[-122.26901064,37.80098673]},"properties":{"id":2717197,"type":"Inlet"}},{"type":"Feature","geometry":{"type":"Point","coordinates":[-122.26745163,37.80100874]},"properties":{"id":2717198,"type":"Inlet"}},{"type":"Feature","geometry":{"type":"Point","coordinates":[-122.26288466,37.80104413]},"properties":{"id":2717199,"type":"Inlet"}},{"type":"Feature","geometry":{"type":"Point","coordinates":[-122.27049792,37.80086004]},"properties":{"id":2717204,"type":"Inlet"}},{"type":"Feature","geometry":{"type":"Point","coordinates":[-122.27052365,37.80077793]},"properties":{"id":2717207,"type":"Inlet"}},{"type":"Feature","geometry":{"type":"Point","coordinates":[-122.27222793,37.80053327]},"properties":{"id":2717211,"type":"Inlet"}},{"type":"Feature","geometry":{"type":"Point","coordinates":[-122.26775087,37.80049128]},"properties":{"id":2717213,"type":"Inlet"}},{"type":"Feature","geometry":{"type":"Point","coordinates":[-122.26626353,37.80054241]},"properties":{"id":2717214,"type":"Inlet"}},{"type":"Feature","geometry":{"type":"Point","coordinates":[-122.27196275,37.80044593]},"properties":{"id":2717215,"type":"Inlet"}},{"type":"Feature","geometry":{"type":"Point","coordinates":[-122.27079975,37.80037962]},"properties":{"id":2717218,"type":"Inlet"}},{"type":"Feature","geometry":{"type":"Point","coordinates":[-122.27076482,37.80036641]},"properties":{"id":2717220,"type":"Inlet"}},{"type":"Feature","geometry":{"type":"Point","coordinates":[-122.26931552,37.80027073]},"properties":{"id":2717224,"type":"Inlet"}},{"type":"Feature","geometry":{"type":"Point","coordinates":[-122.26941891,37.80025133]},"properties":{"id":2717226,"type":"Inlet"}},{"type":"Feature","geometry":{"type":"Point","coordinates":[-122.2594182,37.79807097]},"properties":{"id":2618166,"type":"Inlet"}},{"type":"Feature","geometry":{"type":"Point","coordinates":[-122.27208319,37.79787722]},"properties":{"id":2617151,"type":"Inlet"}},{"type":"Feature","geometry":{"type":"Point","coordinates":[-122.27104526,37.8000779]},"properties":{"id":2717231,"type":"Inlet"}},{"type":"Feature","geometry":{"type":"Point","coordinates":[-122.27077028,37.80001473]},"properties":{"id":2717233,"type":"Inlet"}},{"type":"Feature","geometry":{"type":"Point","coordinates":[-122.27255561,37.79990345]},"properties":{"id":2717236,"type":"Inlet"}},{"type":"Feature","geometry":{"type":"Point","coordinates":[-122.26337941,37.79913731]},"properties":{"id":2617127,"type":"Inlet"}},{"type":"Feature","geometry":{"type":"Point","coordinates":[-122.26386528,37.79911631]},"properties":{"id":2617128,"type":"Inlet"}},{"type":"Feature","geometry":{"type":"Point","coordinates":[-122.25627453,37.79922068]},"properties":{"id":2618114,"type":"Inlet"}},{"type":"Feature","geometry":{"type":"Point","coordinates":[-122.26242006,37.79911801]},"properties":{"id":2618115,"type":"Inlet"}},{"type":"Feature","geometry":{"type":"Point","coordinates":[-122.27020058,37.79891563]},"properties":{"id":2617130,"type":"Inlet"}},{"type":"Feature","geometry":{"type":"Point","coordinates":[-122.26171021,37.79903659]},"properties":{"id":2618117,"type":"Inlet"}},{"type":"Feature","geometry":{"type":"Point","coordinates":[-122.25842898,37.79905535]},"properties":{"id":2618118,"type":"Inlet"}},{"type":"Feature","geometry":{"type":"Point","coordinates":[-122.25888165,37.79902113]},"properties":{"id":2618121,"type":"Inlet"}},{"type":"Feature","geometry":{"type":"Point","coordinates":[-122.26092659,37.79890959]},"properties":{"id":2618123,"type":"Inlet"}},{"type":"Feature","geometry":{"type":"Point","coordinates":[-122.25616248,37.79894698]},"properties":{"id":2618125,"type":"Inlet"}},{"type":"Feature","geometry":{"type":"Point","coordinates":[-122.27186569,37.79869972]},"properties":{"id":2617132,"type":"Inlet"}},{"type":"Feature","geometry":{"type":"Point","coordinates":[-122.25860677,37.79888858]},"properties":{"id":2618127,"type":"Inlet"}},{"type":"Feature","geometry":{"type":"Point","coordinates":[-122.26082814,37.79884513]},"properties":{"id":2618128,"type":"Inlet"}},{"type":"Feature","geometry":{"type":"Point","coordinates":[-122.26741054,37.79870065]},"properties":{"id":2617134,"type":"Inlet"}},{"type":"Feature","geometry":{"type":"Point","coordinates":[-122.27163449,37.79858508]},"properties":{"id":2617136,"type":"Inlet"}},{"type":"Feature","geometry":{"type":"Point","coordinates":[-122.26034559,37.79871431]},"properties":{"id":2618129,"type":"Inlet"}},{"type":"Feature","geometry":{"type":"Point","coordinates":[-122.2609629,37.79861582]},"properties":{"id":2618133,"type":"Inlet"}},{"type":"Feature","geometry":{"type":"Point","coordinates":[-122.25699155,37.79865446]},"properties":{"id":2618135,"type":"Inlet"}},{"type":"Feature","geometry":{"type":"Point","coordinates":[-122.26020914,37.79858038]},"properties":{"id":2618137,"type":"Inlet"}},{"type":"Feature","geometry":{"type":"Point","coordinates":[-122.26116132,37.79851672]},"properties":{"id":2618275,"type":"Inlet"}},{"type":"Feature","geometry":{"type":"Point","coordinates":[-122.26815275,37.79985006]},"properties":{"id":2717238,"type":"Inlet"}},{"type":"Feature","geometry":{"type":"Point","coordinates":[-122.26671604,37.79984618]},"properties":{"id":2717240,"type":"Inlet"}},{"type":"Feature","geometry":{"type":"Point","coordinates":[-122.26986917,37.79960731]},"properties":{"id":2717245,"type":"Inlet"}},{"type":"Feature","geometry":{"type":"Point","coordinates":[-122.26395129,37.79967675]},"properties":{"id":2717246,"type":"Inlet"}},{"type":"Feature","geometry":{"type":"Point","coordinates":[-122.2635422,37.79957849]},"properties":{"id":2717248,"type":"Inlet"}},{"type":"Feature","geometry":{"type":"Point","coordinates":[-122.26365943,37.79955888]},"properties":{"id":2617101,"type":"Inlet"}},{"type":"Feature","geometry":{"type":"Point","coordinates":[-122.25818279,37.79962281]},"properties":{"id":2618101,"type":"Inlet"}},{"type":"Feature","geometry":{"type":"Point","coordinates":[-122.26946725,37.79944716]},"properties":{"id":2617102,"type":"Inlet"}},{"type":"Feature","geometry":{"type":"Point","coordinates":[-122.26555556,37.79944879]},"properties":{"id":2617107,"type":"Inlet"}},{"type":"Feature","geometry":{"type":"Point","coordinates":[-122.27118482,37.79932524]},"properties":{"id":2617108,"type":"Inlet"}},{"type":"Feature","geometry":{"type":"Point","coordinates":[-122.26697685,37.79938699]},"properties":{"id":2617109,"type":"Inlet"}},{"type":"Feature","geometry":{"type":"Point","coordinates":[-122.2618358,37.79944193]},"properties":{"id":2618106,"type":"Inlet"}},{"type":"Feature","geometry":{"type":"Point","coordinates":[-122.26985196,37.79963155]},"properties":{"id":2617330,"type":"Inlet"}},{"type":"Feature","geometry":{"type":"Point","coordinates":[-122.26681431,37.79932075]},"properties":{"id":2617116,"type":"Inlet"}},{"type":"Feature","geometry":{"type":"Point","coordinates":[-122.26533919,37.79930233]},"properties":{"id":2617117,"type":"Inlet"}},{"type":"Feature","geometry":{"type":"Point","coordinates":[-122.25798043,37.79940951]},"properties":{"id":2618107,"type":"Inlet"}},{"type":"Feature","geometry":{"type":"Point","coordinates":[-122.25627402,37.79941846]},"properties":{"id":2618108,"type":"Inlet"}},{"type":"Feature","geometry":{"type":"Point","coordinates":[-122.26858466,37.79916237]},"properties":{"id":2617121,"type":"Inlet"}},{"type":"Feature","geometry":{"type":"Point","coordinates":[-122.26458306,37.79916738]},"properties":{"id":2617124,"type":"Inlet"}},{"type":"Feature","geometry":{"type":"Point","coordinates":[-122.25866885,37.79924406]},"properties":{"id":2618111,"type":"Inlet"}},{"type":"Feature","geometry":{"type":"Point","coordinates":[-122.26191447,37.79918325]},"properties":{"id":2618112,"type":"Inlet"}},{"type":"Feature","geometry":{"type":"Point","coordinates":[-122.26473819,37.79914034]},"properties":{"id":2617125,"type":"Inlet"}},{"type":"Feature","geometry":{"type":"Point","coordinates":[-122.25527251,37.79856744]},"properties":{"id":2618141,"type":"Inlet"}},{"type":"Feature","geometry":{"type":"Point","coordinates":[-122.25968761,37.79848378]},"properties":{"id":2618142,"type":"Inlet"}},{"type":"Feature","geometry":{"type":"Point","coordinates":[-122.26122694,37.79843746]},"properties":{"id":2618143,"type":"Inlet"}},{"type":"Feature","geometry":{"type":"Point","coordinates":[-122.26030102,37.79844029]},"properties":{"id":2618144,"type":"Inlet"}},{"type":"Feature","geometry":{"type":"Point","coordinates":[-122.26090637,37.79842164]},"properties":{"id":2618145,"type":"Inlet"}},{"type":"Feature","geometry":{"type":"Point","coordinates":[-122.25750104,37.79846145]},"properties":{"id":2618148,"type":"Inlet"}},{"type":"Feature","geometry":{"type":"Point","coordinates":[-122.25537939,37.79847589]},"properties":{"id":2618149,"type":"Inlet"}},{"type":"Feature","geometry":{"type":"Point","coordinates":[-122.2609696,37.79838774]},"properties":{"id":2618150,"type":"Inlet"}},{"type":"Feature","geometry":{"type":"Point","coordinates":[-122.27048675,37.79814154]},"properties":{"id":2617143,"type":"Inlet"}},{"type":"Feature","geometry":{"type":"Point","coordinates":[-122.26474405,37.79822144]},"properties":{"id":2617144,"type":"Inlet"}},{"type":"Feature","geometry":{"type":"Point","coordinates":[-122.25885706,37.79827506]},"properties":{"id":2618156,"type":"Inlet"}},{"type":"Feature","geometry":{"type":"Point","coordinates":[-122.25937068,37.79825709]},"properties":{"id":2618157,"type":"Inlet"}},{"type":"Feature","geometry":{"type":"Point","coordinates":[-122.26066113,37.79822547]},"properties":{"id":2618159,"type":"Inlet"}},{"type":"Feature","geometry":{"type":"Point","coordinates":[-122.27230355,37.79797279]},"properties":{"id":2617147,"type":"Inlet"}},{"type":"Feature","geometry":{"type":"Point","coordinates":[-122.25958132,37.79814143]},"properties":{"id":2618162,"type":"Inlet"}},{"type":"Feature","geometry":{"type":"Point","coordinates":[-122.2594197,37.79813413]},"properties":{"id":2618163,"type":"Inlet"}},{"type":"Feature","geometry":{"type":"Point","coordinates":[-122.25907775,37.79801974]},"properties":{"id":2618168,"type":"Inlet"}},{"type":"Feature","geometry":{"type":"Point","coordinates":[-122.25628519,37.79806137]},"properties":{"id":2618169,"type":"Inlet"}},{"type":"Feature","geometry":{"type":"Point","coordinates":[-122.25838764,37.79796755]},"properties":{"id":2618170,"type":"Inlet"}},{"type":"Feature","geometry":{"type":"Point","coordinates":[-122.2561745,37.7979916]},"properties":{"id":2618171,"type":"Inlet"}},{"type":"Feature","geometry":{"type":"Point","coordinates":[-122.25961847,37.79791825]},"properties":{"id":2618172,"type":"Inlet"}},{"type":"Feature","geometry":{"type":"Point","coordinates":[-122.26944459,37.79776988]},"properties":{"id":2617154,"type":"Inlet"}},{"type":"Feature","geometry":{"type":"Point","coordinates":[-122.26928368,37.79769951]},"properties":{"id":2617157,"type":"Inlet"}},{"type":"Feature","geometry":{"type":"Point","coordinates":[-122.2586583,37.79784883]},"properties":{"id":2618178,"type":"Inlet"}},{"type":"Feature","geometry":{"type":"Point","coordinates":[-122.25845127,37.79780385]},"properties":{"id":2618181,"type":"Inlet"}},{"type":"Feature","geometry":{"type":"Point","coordinates":[-122.25638537,37.79783326]},"properties":{"id":2618182,"type":"Inlet"}},{"type":"Feature","geometry":{"type":"Point","coordinates":[-122.26255522,37.79766636]},"properties":{"id":2618185,"type":"Inlet"}},{"type":"Feature","geometry":{"type":"Point","coordinates":[-122.27109146,37.7975158]},"properties":{"id":2617160,"type":"Inlet"}},{"type":"Feature","geometry":{"type":"Point","coordinates":[-122.2666645,37.79753482]},"properties":{"id":2617161,"type":"Inlet"}},{"type":"Feature","geometry":{"type":"Point","coordinates":[-122.27091202,37.79746699]},"properties":{"id":2617162,"type":"Inlet"}},{"type":"Feature","geometry":{"type":"Point","coordinates":[-122.26054229,37.79759342]},"properties":{"id":2618188,"type":"Inlet"}},{"type":"Feature","geometry":{"type":"Point","coordinates":[-122.25900123,37.79742002]},"properties":{"id":2618189,"type":"Inlet"}},{"type":"Feature","geometry":{"type":"Point","coordinates":[-122.25861536,37.7974244]},"properties":{"id":2618190,"type":"Inlet"}},{"type":"Feature","geometry":{"type":"Point","coordinates":[-122.26595085,37.79722001]},"properties":{"id":2617174,"type":"Inlet"}},{"type":"Feature","geometry":{"type":"Point","coordinates":[-122.27222547,37.79709429]},"properties":{"id":2617175,"type":"Inlet"}},{"type":"Feature","geometry":{"type":"Point","coordinates":[-122.25908849,37.79723125]},"properties":{"id":2618193,"type":"Inlet"}},{"type":"Feature","geometry":{"type":"Point","coordinates":[-122.26990348,37.79705294]},"properties":{"id":2617176,"type":"Inlet"}},{"type":"Feature","geometry":{"type":"Point","coordinates":[-122.25712771,37.79724057]},"properties":{"id":2618194,"type":"Inlet"}},{"type":"Feature","geometry":{"type":"Point","coordinates":[-122.26601045,37.79637859]},"properties":{"id":2617191,"type":"Inlet"}},{"type":"Feature","geometry":{"type":"Point","coordinates":[-122.27205161,37.79626393]},"properties":{"id":2617192,"type":"Inlet"}},{"type":"Feature","geometry":{"type":"Point","coordinates":[-122.26573581,37.79632914]},"properties":{"id":2617195,"type":"Inlet"}},{"type":"Feature","geometry":{"type":"Point","coordinates":[-122.26835542,37.79476953]},"properties":{"id":2617246,"type":"Inlet"}},{"type":"Feature","geometry":{"type":"Point","coordinates":[-122.26822262,37.79471658]},"properties":{"id":2617248,"type":"Inlet"}},{"type":"Feature","geometry":{"type":"Point","coordinates":[-122.26833951,37.79453766]},"properties":{"id":2617257,"type":"Inlet"}},{"type":"Feature","geometry":{"type":"Point","coordinates":[-122.2574735,37.79459229]},"properties":{"id":2618240,"type":"Inlet"}},{"type":"Feature","geometry":{"type":"Point","coordinates":[-122.27011663,37.79437777]},"properties":{"id":2617260,"type":"Inlet"}},{"type":"Feature","geometry":{"type":"Point","coordinates":[-122.26863472,37.79436087]},"properties":{"id":2617261,"type":"Inlet"}},{"type":"Feature","geometry":{"type":"Point","coordinates":[-122.2716271,37.79428573]},"properties":{"id":2617263,"type":"Inlet"}},{"type":"Feature","geometry":{"type":"Point","coordinates":[-122.2557735,37.79450157]},"properties":{"id":2618244,"type":"Inlet"}},{"type":"Feature","geometry":{"type":"Point","coordinates":[-122.2672199,37.79432714]},"properties":{"id":2617264,"type":"Inlet"}},{"type":"Feature","geometry":{"type":"Point","coordinates":[-122.26847225,37.79429738]},"properties":{"id":2617265,"type":"Inlet"}},{"type":"Feature","geometry":{"type":"Point","coordinates":[-122.27142767,37.79419671]},"properties":{"id":2617267,"type":"Inlet"}},{"type":"Feature","geometry":{"type":"Point","coordinates":[-122.25932376,37.79437723]},"properties":{"id":2618247,"type":"Inlet"}},{"type":"Feature","geometry":{"type":"Point","coordinates":[-122.26886579,37.79410744]},"properties":{"id":2617272,"type":"Inlet"}},{"type":"Feature","geometry":{"type":"Point","coordinates":[-122.26865435,37.79402272]},"properties":{"id":2617276,"type":"Inlet"}},{"type":"Feature","geometry":{"type":"Point","coordinates":[-122.26710869,37.79212655]},"properties":{"id":2517152,"type":"Inlet"}},{"type":"Feature","geometry":{"type":"Point","coordinates":[-122.25514682,37.79229834]},"properties":{"id":2518144,"type":"Inlet"}},{"type":"Feature","geometry":{"type":"Point","coordinates":[-122.26811608,37.79205926]},"properties":{"id":2517153,"type":"Inlet"}},{"type":"Feature","geometry":{"type":"Point","coordinates":[-122.26690839,37.79207324]},"properties":{"id":2517154,"type":"Inlet"}},{"type":"Feature","geometry":{"type":"Point","coordinates":[-122.26856873,37.79202637]},"properties":{"id":2517224,"type":"Inlet"}},{"type":"Feature","geometry":{"type":"Point","coordinates":[-122.25746645,37.79202756]},"properties":{"id":2518152,"type":"Inlet"}},{"type":"Feature","geometry":{"type":"Point","coordinates":[-122.25738628,37.79200404]},"properties":{"id":2518153,"type":"Inlet"}},{"type":"Feature","geometry":{"type":"Point","coordinates":[-122.26128258,37.79625909]},"properties":{"id":2618212,"type":"Inlet"}},{"type":"Feature","geometry":{"type":"Point","coordinates":[-122.26755824,37.7961075]},"properties":{"id":2617196,"type":"Inlet"}},{"type":"Feature","geometry":{"type":"Point","coordinates":[-122.2644695,37.79599101]},"properties":{"id":2617198,"type":"Inlet"}},{"type":"Feature","geometry":{"type":"Point","coordinates":[-122.2647773,37.79590675]},"properties":{"id":2617200,"type":"Inlet"}},{"type":"Feature","geometry":{"type":"Point","coordinates":[-122.25744738,37.79597502]},"properties":{"id":2618214,"type":"Inlet"}},{"type":"Feature","geometry":{"type":"Point","coordinates":[-122.26820802,37.79272261]},"properties":{"id":2517140,"type":"Inlet"}},{"type":"Feature","geometry":{"type":"Point","coordinates":[-122.26797191,37.79261902]},"properties":{"id":2517143,"type":"Inlet"}},{"type":"Feature","geometry":{"type":"Point","coordinates":[-122.27275537,37.79253897]},"properties":{"id":2517144,"type":"Inlet"}},{"type":"Feature","geometry":{"type":"Point","coordinates":[-122.26956597,37.79247769]},"properties":{"id":2517145,"type":"Inlet"}},{"type":"Feature","geometry":{"type":"Point","coordinates":[-122.27260211,37.7923538]},"properties":{"id":2517146,"type":"Inlet"}},{"type":"Feature","geometry":{"type":"Point","coordinates":[-122.25816588,37.79254933]},"properties":{"id":2518130,"type":"Inlet"}},{"type":"Feature","geometry":{"type":"Point","coordinates":[-122.25857761,37.79254182]},"properties":{"id":2518131,"type":"Inlet"}},{"type":"Feature","geometry":{"type":"Point","coordinates":[-122.26646086,37.79566798]},"properties":{"id":2617326,"type":"Inlet"}},{"type":"Feature","geometry":{"type":"Point","coordinates":[-122.25546399,37.79583151]},"properties":{"id":2618221,"type":"Inlet"}},{"type":"Feature","geometry":{"type":"Point","coordinates":[-122.26008982,37.79573715]},"properties":{"id":2618222,"type":"Inlet"}},{"type":"Feature","geometry":{"type":"Point","coordinates":[-122.26183729,37.79563895]},"properties":{"id":2618223,"type":"Inlet"}},{"type":"Feature","geometry":{"type":"Point","coordinates":[-122.27242858,37.79545208]},"properties":{"id":2617212,"type":"Inlet"}},{"type":"Feature","geometry":{"type":"Point","coordinates":[-122.27217829,37.79540777]},"properties":{"id":2617214,"type":"Inlet"}},{"type":"Feature","geometry":{"type":"Point","coordinates":[-122.2679743,37.79540907]},"properties":{"id":2617215,"type":"Inlet"}},{"type":"Feature","geometry":{"type":"Point","coordinates":[-122.2697867,37.79527613]},"properties":{"id":2617219,"type":"Inlet"}},{"type":"Feature","geometry":{"type":"Point","coordinates":[-122.27101314,37.7952481]},"properties":{"id":2617220,"type":"Inlet"}},{"type":"Feature","geometry":{"type":"Point","coordinates":[-122.26897028,37.79391634]},"properties":{"id":2517102,"type":"Inlet"}},{"type":"Feature","geometry":{"type":"Point","coordinates":[-122.26495964,37.79396614]},"properties":{"id":2517103,"type":"Inlet"}},{"type":"Feature","geometry":{"type":"Point","coordinates":[-122.27045331,37.79383572]},"properties":{"id":2517104,"type":"Inlet"}},{"type":"Feature","geometry":{"type":"Point","coordinates":[-122.26189242,37.79395021]},"properties":{"id":2518103,"type":"Inlet"}},{"type":"Feature","geometry":{"type":"Point","coordinates":[-122.27027481,37.79375325]},"properties":{"id":2517105,"type":"Inlet"}},{"type":"Feature","geometry":{"type":"Point","coordinates":[-122.25838464,37.79389407]},"properties":{"id":2518105,"type":"Inlet"}},{"type":"Feature","geometry":{"type":"Point","coordinates":[-122.26760448,37.79368755]},"properties":{"id":2517109,"type":"Inlet"}},{"type":"Feature","geometry":{"type":"Point","coordinates":[-122.26782846,37.79364505]},"properties":{"id":2517112,"type":"Inlet"}},{"type":"Feature","geometry":{"type":"Point","coordinates":[-122.25651028,37.79374827]},"properties":{"id":2518224,"type":"Inlet"}},{"type":"Feature","geometry":{"type":"Point","coordinates":[-122.26745296,37.79357514]},"properties":{"id":2517115,"type":"Inlet"}},{"type":"Feature","geometry":{"type":"Point","coordinates":[-122.25978259,37.79365484]},"properties":{"id":2518110,"type":"Inlet"}},{"type":"Feature","geometry":{"type":"Point","coordinates":[-122.25866273,37.79248218]},"properties":{"id":2518134,"type":"Inlet"}},{"type":"Feature","geometry":{"type":"Point","coordinates":[-122.26700334,37.79235405]},"properties":{"id":2517149,"type":"Inlet"}},{"type":"Feature","geometry":{"type":"Point","coordinates":[-122.25836379,37.79242895]},"properties":{"id":2518136,"type":"Inlet"}},{"type":"Feature","geometry":{"type":"Point","coordinates":[-122.25814917,37.79242803]},"properties":{"id":2518137,"type":"Inlet"}},{"type":"Feature","geometry":{"type":"Point","coordinates":[-122.25674745,37.79243382]},"properties":{"id":2518138,"type":"Inlet"}},{"type":"Feature","geometry":{"type":"Point","coordinates":[-122.26607572,37.79155489]},"properties":{"id":2517163,"type":"Inlet"}},{"type":"Feature","geometry":{"type":"Point","coordinates":[-122.26720404,37.79147893]},"properties":{"id":2517209,"type":"Inlet"}},{"type":"Feature","geometry":{"type":"Point","coordinates":[-122.26672093,37.79146831]},"properties":{"id":2517165,"type":"Inlet"}},{"type":"Feature","geometry":{"type":"Point","coordinates":[-122.2594962,37.79150218]},"properties":{"id":2518164,"type":"Inlet"}},{"type":"Feature","geometry":{"type":"Point","coordinates":[-122.25649751,37.7915256]},"properties":{"id":2518168,"type":"Inlet"}},{"type":"Feature","geometry":{"type":"Point","coordinates":[-122.25650516,37.79148291]},"properties":{"id":2518171,"type":"Inlet"}},{"type":"Feature","geometry":{"type":"Point","coordinates":[-122.26560704,37.79127762]},"properties":{"id":2517166,"type":"Inlet"}},{"type":"Feature","geometry":{"type":"Point","coordinates":[-122.25545361,37.79136603]},"properties":{"id":2518173,"type":"Inlet"}},{"type":"Feature","geometry":{"type":"Point","coordinates":[-122.25967626,37.79128593]},"properties":{"id":2518174,"type":"Inlet"}},{"type":"Feature","geometry":{"type":"Point","coordinates":[-122.25953251,37.79120841]},"properties":{"id":2518176,"type":"Inlet"}},{"type":"Feature","geometry":{"type":"Point","coordinates":[-122.26596764,37.79108543]},"properties":{"id":2517168,"type":"Inlet"}},{"type":"Feature","geometry":{"type":"Point","coordinates":[-122.25668685,37.79111625]},"properties":{"id":2518177,"type":"Inlet"}},{"type":"Feature","geometry":{"type":"Point","coordinates":[-122.26557497,37.79094779]},"properties":{"id":2517170,"type":"Inlet"}},{"type":"Feature","geometry":{"type":"Point","coordinates":[-122.26510127,37.79067746]},"properties":{"id":2517174,"type":"Inlet"}},{"type":"Feature","geometry":{"type":"Point","coordinates":[-122.26631188,37.79064216]},"properties":{"id":2517175,"type":"Inlet"}},{"type":"Feature","geometry":{"type":"Point","coordinates":[-122.26624222,37.79062397]},"properties":{"id":2517176,"type":"Inlet"}},{"type":"Feature","geometry":{"type":"Point","coordinates":[-122.26633512,37.79060061]},"properties":{"id":2517177,"type":"Inlet"}},{"type":"Feature","geometry":{"type":"Point","coordinates":[-122.2659015,37.79041482]},"properties":{"id":2517179,"type":"Inlet"}},{"type":"Feature","geometry":{"type":"Point","coordinates":[-122.26526138,37.79042372]},"properties":{"id":2517180,"type":"Inlet"}},{"type":"Feature","geometry":{"type":"Point","coordinates":[-122.26616045,37.79009644]},"properties":{"id":2517183,"type":"Inlet"}},{"type":"Feature","geometry":{"type":"Point","coordinates":[-122.2662746,37.79002056]},"properties":{"id":2517184,"type":"Inlet"}},{"type":"Feature","geometry":{"type":"Point","coordinates":[-122.25505196,37.80776291]},"properties":{"id":2818140,"type":"Inlet"}},{"type":"Feature","geometry":{"type":"Point","coordinates":[-122.26980035,37.79485162]},"properties":{"id":2617319,"type":"Inlet"}},{"type":"Feature","geometry":{"type":"Point","coordinates":[-122.26962955,37.79479764]},"properties":{"id":2617320,"type":"Inlet"}},{"type":"Feature","geometry":{"type":"Point","coordinates":[-122.26977987,37.79488896]},"properties":{"id":2617321,"type":"Inlet"}},{"type":"Feature","geometry":{"type":"Point","coordinates":[-122.2693623,37.79525003]},"properties":{"id":2617322,"type":"Inlet"}},{"type":"Feature","geometry":{"type":"Point","coordinates":[-122.2566845,37.79527631]},"properties":{"id":2618255,"type":"Inlet"}},{"type":"Feature","geometry":{"type":"Point","coordinates":[-122.25711584,37.79466978]},"properties":{"id":2618256,"type":"Inlet"}},{"type":"Feature","geometry":{"type":"Point","coordinates":[-122.26225031,37.80000658]},"properties":{"id":2618263,"type":"Inlet"}},{"type":"Feature","geometry":{"type":"Point","coordinates":[-122.26227817,37.7998213]},"properties":{"id":2618264,"type":"Inlet"}},{"type":"Feature","geometry":{"type":"Point","coordinates":[-122.26203203,37.79946922]},"properties":{"id":2618267,"type":"Inlet"}},{"type":"Feature","geometry":{"type":"Point","coordinates":[-122.26231084,37.79925629]},"properties":{"id":2618269,"type":"Inlet"}},{"type":"Feature","geometry":{"type":"Point","coordinates":[-122.2609535,37.79880343]},"properties":{"id":2618273,"type":"Inlet"}},{"type":"Feature","geometry":{"type":"Point","coordinates":[-122.26106853,37.79869115]},"properties":{"id":2618274,"type":"Inlet"}},{"type":"Feature","geometry":{"type":"Point","coordinates":[-122.26106891,37.79779541]},"properties":{"id":2618278,"type":"Inlet"}},{"type":"Feature","geometry":{"type":"Point","coordinates":[-122.26042343,37.79674094]},"properties":{"id":2618279,"type":"Inlet"}},{"type":"Feature","geometry":{"type":"Point","coordinates":[-122.26051194,37.79662291]},"properties":{"id":2618280,"type":"Inlet"}},{"type":"Feature","geometry":{"type":"Point","coordinates":[-122.25758936,37.79700089]},"properties":{"id":2618281,"type":"Inlet"}},{"type":"Feature","geometry":{"type":"Point","coordinates":[-122.25748655,37.797045]},"properties":{"id":2618282,"type":"Inlet"}},{"type":"Feature","geometry":{"type":"Point","coordinates":[-122.25603135,37.79889125]},"properties":{"id":2618285,"type":"Inlet"}},{"type":"Feature","geometry":{"type":"Point","coordinates":[-122.25599183,37.79941579]},"properties":{"id":2618286,"type":"Inlet"}},{"type":"Feature","geometry":{"type":"Point","coordinates":[-122.27255722,37.79478736]},"properties":{"id":2617280,"type":"Inlet"}},{"type":"Feature","geometry":{"type":"Point","coordinates":[-122.27305041,37.79399059]},"properties":{"id":2617283,"type":"Inlet"}},{"type":"Feature","geometry":{"type":"Point","coordinates":[-122.27270889,37.79399414]},"properties":{"id":2617284,"type":"Inlet"}},{"type":"Feature","geometry":{"type":"Point","coordinates":[-122.27258382,37.79404192]},"properties":{"id":2617285,"type":"Inlet"}},{"type":"Feature","geometry":{"type":"Point","coordinates":[-122.27237372,37.79444185]},"properties":{"id":2617287,"type":"Inlet"}},{"type":"Feature","geometry":{"type":"Point","coordinates":[-122.27235971,37.7944541]},"properties":{"id":2617288,"type":"Inlet"}},{"type":"Feature","geometry":{"type":"Point","coordinates":[-122.2714926,37.79409823]},"properties":{"id":2617291,"type":"Inlet"}},{"type":"Feature","geometry":{"type":"Point","coordinates":[-122.26896899,37.79496172]},"properties":{"id":2617325,"type":"Inlet"}},{"type":"Feature","geometry":{"type":"Point","coordinates":[-122.27169552,37.79419028]},"properties":{"id":2617292,"type":"Inlet"}},{"type":"Feature","geometry":{"type":"Point","coordinates":[-122.2716901,37.7939788]},"properties":{"id":2617295,"type":"Inlet"}},{"type":"Feature","geometry":{"type":"Point","coordinates":[-122.27212,37.79550341]},"properties":{"id":2617303,"type":"Inlet"}},{"type":"Feature","geometry":{"type":"Point","coordinates":[-122.27134117,37.795029]},"properties":{"id":2617313,"type":"Inlet"}},{"type":"Feature","geometry":{"type":"Point","coordinates":[-122.27142559,37.7949126]},"properties":{"id":2617314,"type":"Inlet"}},{"type":"Feature","geometry":{"type":"Point","coordinates":[-122.27181506,37.79599761]},"properties":{"id":2617315,"type":"Inlet"}},{"type":"Feature","geometry":{"type":"Point","coordinates":[-122.27010711,37.79455898]},"properties":{"id":2617316,"type":"Inlet"}},{"type":"Feature","geometry":{"type":"Point","coordinates":[-122.26994628,37.79458375]},"properties":{"id":2617317,"type":"Inlet"}},{"type":"Feature","geometry":{"type":"Point","coordinates":[-122.26983359,37.79450055]},"properties":{"id":2617318,"type":"Inlet"}},{"type":"Feature","geometry":{"type":"Point","coordinates":[-122.26555083,37.797066]},"properties":{"id":2617327,"type":"Inlet"}},{"type":"Feature","geometry":{"type":"Point","coordinates":[-122.26458849,37.79815784]},"properties":{"id":2617328,"type":"Inlet"}},{"type":"Feature","geometry":{"type":"Point","coordinates":[-122.26829143,37.79735422]},"properties":{"id":2617332,"type":"Inlet"}},{"type":"Feature","geometry":{"type":"Point","coordinates":[-122.26805881,37.79723783]},"properties":{"id":2617333,"type":"Inlet"}},{"type":"Feature","geometry":{"type":"Point","coordinates":[-122.26788023,37.79799578]},"properties":{"id":2617334,"type":"Inlet"}},{"type":"Feature","geometry":{"type":"Point","coordinates":[-122.26359332,37.79775004]},"properties":{"id":2617336,"type":"Inlet"}},{"type":"Feature","geometry":{"type":"Point","coordinates":[-122.26518422,37.79479191]},"properties":{"id":2617339,"type":"Inlet"}},{"type":"Feature","geometry":{"type":"Point","coordinates":[-122.26522482,37.79496296]},"properties":{"id":2617340,"type":"Inlet"}},{"type":"Feature","geometry":{"type":"Point","coordinates":[-122.26718586,37.79209655]},"properties":{"id":2517200,"type":"Inlet"}},{"type":"Feature","geometry":{"type":"Point","coordinates":[-122.26674655,37.79253056]},"properties":{"id":2517201,"type":"Inlet"}},{"type":"Feature","geometry":{"type":"Point","coordinates":[-122.26665793,37.7926758]},"properties":{"id":2517202,"type":"Inlet"}},{"type":"Feature","geometry":{"type":"Point","coordinates":[-122.26656456,37.79282484]},"properties":{"id":2517203,"type":"Inlet"}},{"type":"Feature","geometry":{"type":"Point","coordinates":[-122.26615501,37.7936079]},"properties":{"id":2517204,"type":"Inlet"}},{"type":"Feature","geometry":{"type":"Point","coordinates":[-122.27281791,37.79233133]},"properties":{"id":2517205,"type":"Inlet"}},{"type":"Feature","geometry":{"type":"Point","coordinates":[-122.27184507,37.79319334]},"properties":{"id":2517206,"type":"Inlet"}},{"type":"Feature","geometry":{"type":"Point","coordinates":[-122.26954263,37.79236954]},"properties":{"id":2517207,"type":"Inlet"}},{"type":"Feature","geometry":{"type":"Point","coordinates":[-122.26597942,37.79136268]},"properties":{"id":2517211,"type":"Inlet"}},{"type":"Feature","geometry":{"type":"Point","coordinates":[-122.2658562,37.79048762]},"properties":{"id":2517212,"type":"Inlet"}},{"type":"Feature","geometry":{"type":"Point","coordinates":[-122.26600508,37.79035797]},"properties":{"id":2517214,"type":"Inlet"}},{"type":"Feature","geometry":{"type":"Point","coordinates":[-122.26611575,37.79083668]},"properties":{"id":2517216,"type":"Inlet"}},{"type":"Feature","geometry":{"type":"Point","coordinates":[-122.2659858,37.79105543]},"properties":{"id":2517217,"type":"Inlet"}},{"type":"Feature","geometry":{"type":"Point","coordinates":[-122.26621628,37.79066593]},"properties":{"id":2517215,"type":"Inlet"}},{"type":"Feature","geometry":{"type":"Point","coordinates":[-122.26527807,37.7912146]},"properties":{"id":2517218,"type":"Inlet"}},{"type":"Feature","geometry":{"type":"Point","coordinates":[-122.264752,37.79111695]},"properties":{"id":2517219,"type":"Inlet"}},{"type":"Feature","geometry":{"type":"Point","coordinates":[-122.26144692,37.79078223]},"properties":{"id":2517220,"type":"Inlet"}},{"type":"Feature","geometry":{"type":"Point","coordinates":[-122.26091274,37.79069443]},"properties":{"id":2517221,"type":"Inlet"}},{"type":"Feature","geometry":{"type":"Point","coordinates":[-122.26802774,37.7920379]},"properties":{"id":2517222,"type":"Inlet"}},{"type":"Feature","geometry":{"type":"Point","coordinates":[-122.2679198,37.79201181]},"properties":{"id":2517223,"type":"Inlet"}},{"type":"Feature","geometry":{"type":"Point","coordinates":[-122.26861928,37.79194194]},"properties":{"id":2517225,"type":"Inlet"}},{"type":"Feature","geometry":{"type":"Point","coordinates":[-122.26872213,37.79176991]},"properties":{"id":2517226,"type":"Inlet"}},{"type":"Feature","geometry":{"type":"Point","coordinates":[-122.26884986,37.79155702]},"properties":{"id":2517227,"type":"Inlet"}},{"type":"Feature","geometry":{"type":"Point","coordinates":[-122.26891257,37.79145638]},"properties":{"id":2517228,"type":"Inlet"}},{"type":"Feature","geometry":{"type":"Point","coordinates":[-122.26906886,37.79122573]},"properties":{"id":2517229,"type":"Inlet"}},{"type":"Feature","geometry":{"type":"Point","coordinates":[-122.26889866,37.7914787]},"properties":{"id":2517232,"type":"Inlet"}},{"type":"Feature","geometry":{"type":"Point","coordinates":[-122.26889406,37.79148608]},"properties":{"id":2517233,"type":"Inlet"}},{"type":"Feature","geometry":{"type":"Point","coordinates":[-122.26900528,37.79131733]},"properties":{"id":2517234,"type":"Inlet"}},{"type":"Feature","geometry":{"type":"Point","coordinates":[-122.26924161,37.79093921]},"properties":{"id":2517235,"type":"Inlet"}},{"type":"Feature","geometry":{"type":"Point","coordinates":[-122.26953623,37.79047577]},"properties":{"id":2517236,"type":"Inlet"}},{"type":"Feature","geometry":{"type":"Point","coordinates":[-122.27019567,37.80744412]},"properties":{"id":2817280,"type":"Inlet"}},{"type":"Feature","geometry":{"type":"Point","coordinates":[-122.27307077,37.80879195]},"properties":{"id":2817282,"type":"Inlet"}},{"type":"Feature","geometry":{"type":"Point","coordinates":[-122.27296944,37.80846317]},"properties":{"id":2817283,"type":"Inlet"}},{"type":"Feature","geometry":{"type":"Point","coordinates":[-122.26678961,37.80679314]},"properties":{"id":2817301,"type":"Inlet"}},{"type":"Feature","geometry":{"type":"Point","coordinates":[-122.27233641,37.80271808]},"properties":{"id":2717250,"type":"Inlet"}},{"type":"Feature","geometry":{"type":"Point","coordinates":[-122.27151041,37.80180242]},"properties":{"id":2717252,"type":"Inlet"}},{"type":"Feature","geometry":{"type":"Point","coordinates":[-122.272225,37.80207486]},"properties":{"id":2717251,"type":"Inlet"}},{"type":"Feature","geometry":{"type":"Point","coordinates":[-122.26660472,37.80244222]},"properties":{"id":2717253,"type":"Inlet"}},{"type":"Feature","geometry":{"type":"Point","coordinates":[-122.26372037,37.80460181]},"properties":{"id":2717254,"type":"Inlet"}},{"type":"Feature","geometry":{"type":"Point","coordinates":[-122.26783053,37.80036482]},"properties":{"id":2717255,"type":"Inlet"}},{"type":"Feature","geometry":{"type":"Point","coordinates":[-122.26466565,37.80082179]},"properties":{"id":2717256,"type":"Inlet"}},{"type":"Feature","geometry":{"type":"Point","coordinates":[-122.26349522,37.80036959]},"properties":{"id":2717257,"type":"Inlet"}},{"type":"Feature","geometry":{"type":"Point","coordinates":[-122.25663918,37.79385622]},"properties":{"id":2518225,"type":"Inlet"}},{"type":"Feature","geometry":{"type":"Point","coordinates":[-122.25771536,37.79289184]},"properties":{"id":2518226,"type":"Inlet"}},{"type":"Feature","geometry":{"type":"Point","coordinates":[-122.25782142,37.79269318]},"properties":{"id":2518227,"type":"Inlet"}},{"type":"Feature","geometry":{"type":"Point","coordinates":[-122.25804611,37.79260743]},"properties":{"id":2518228,"type":"Inlet"}},{"type":"Feature","geometry":{"type":"Point","coordinates":[-122.25693314,37.79238229]},"properties":{"id":2518229,"type":"Inlet"}},{"type":"Feature","geometry":{"type":"Point","coordinates":[-122.26010109,37.79336511]},"properties":{"id":2518230,"type":"Inlet"}},{"type":"Feature","geometry":{"type":"Point","coordinates":[-122.25934568,37.79143095]},"properties":{"id":2518231,"type":"Inlet"}},{"type":"Feature","geometry":{"type":"Point","coordinates":[-122.27495925,37.80987326]},"properties":{"id":2816118,"type":"Inlet"}},{"type":"Feature","geometry":{"type":"Point","coordinates":[-122.28192083,37.80507535]},"properties":{"id":2816270,"type":"Inlet"}},{"type":"Feature","geometry":{"type":"Point","coordinates":[-122.27357323,37.80511534]},"properties":{"id":2816276,"type":"Inlet"}},{"type":"Feature","geometry":{"type":"Point","coordinates":[-122.27931207,37.80759649]},"properties":{"id":2816189,"type":"Inlet"}},{"type":"Feature","geometry":{"type":"Point","coordinates":[-122.28463488,37.80744533]},"properties":{"id":2815187,"type":"Inlet"}},{"type":"Feature","geometry":{"type":"Point","coordinates":[-122.27494658,37.80753317]},"properties":{"id":2816192,"type":"Inlet"}},{"type":"Feature","geometry":{"type":"Point","coordinates":[-122.28103704,37.80741526]},"properties":{"id":2816193,"type":"Inlet"}},{"type":"Feature","geometry":{"type":"Point","coordinates":[-122.27350151,37.80747525]},"properties":{"id":2816195,"type":"Inlet"}},{"type":"Feature","geometry":{"type":"Point","coordinates":[-122.2834687,37.80725216]},"properties":{"id":2816198,"type":"Inlet"}},{"type":"Feature","geometry":{"type":"Point","coordinates":[-122.27656228,37.80734266]},"properties":{"id":2816199,"type":"Inlet"}},{"type":"Feature","geometry":{"type":"Point","coordinates":[-122.27810973,37.80712157]},"properties":{"id":2816203,"type":"Inlet"}},{"type":"Feature","geometry":{"type":"Point","coordinates":[-122.28136994,37.80996271]},"properties":{"id":2816115,"type":"Inlet"}},{"type":"Feature","geometry":{"type":"Point","coordinates":[-122.27647803,37.80975357]},"properties":{"id":2816120,"type":"Inlet"}},{"type":"Feature","geometry":{"type":"Point","coordinates":[-122.27733644,37.80858766]},"properties":{"id":2816157,"type":"Inlet"}},{"type":"Feature","geometry":{"type":"Point","coordinates":[-122.27361095,37.80263646]},"properties":{"id":2716172,"type":"Inlet"}},{"type":"Feature","geometry":{"type":"Point","coordinates":[-122.27952311,37.80253504]},"properties":{"id":2716174,"type":"Inlet"}},{"type":"Feature","geometry":{"type":"Point","coordinates":[-122.28407929,37.80240645]},"properties":{"id":2715197,"type":"Inlet"}},{"type":"Feature","geometry":{"type":"Point","coordinates":[-122.28423424,37.80237184]},"properties":{"id":2715198,"type":"Inlet"}},{"type":"Feature","geometry":{"type":"Point","coordinates":[-122.28324248,37.80230237]},"properties":{"id":2716180,"type":"Inlet"}},{"type":"Feature","geometry":{"type":"Point","coordinates":[-122.28392595,37.80308449]},"properties":{"id":2715174,"type":"Inlet"}},{"type":"Feature","geometry":{"type":"Point","coordinates":[-122.28090821,37.80312735]},"properties":{"id":2716150,"type":"Inlet"}},{"type":"Feature","geometry":{"type":"Point","coordinates":[-122.28068639,37.80304418]},"properties":{"id":2716153,"type":"Inlet"}},{"type":"Feature","geometry":{"type":"Point","coordinates":[-122.27426095,37.80303664]},"properties":{"id":2716157,"type":"Inlet"}},{"type":"Feature","geometry":{"type":"Point","coordinates":[-122.28256935,37.80288732]},"properties":{"id":2716159,"type":"Inlet"}},{"type":"Feature","geometry":{"type":"Point","coordinates":[-122.28404019,37.80279641]},"properties":{"id":2715182,"type":"Inlet"}},{"type":"Feature","geometry":{"type":"Point","coordinates":[-122.28255757,37.80275702]},"properties":{"id":2716163,"type":"Inlet"}},{"type":"Feature","geometry":{"type":"Point","coordinates":[-122.2805029,37.8027551]},"properties":{"id":2716164,"type":"Inlet"}},{"type":"Feature","geometry":{"type":"Point","coordinates":[-122.27791866,37.80275701]},"properties":{"id":2716166,"type":"Inlet"}},{"type":"Feature","geometry":{"type":"Point","coordinates":[-122.27355316,37.80275338]},"properties":{"id":2716168,"type":"Inlet"}},{"type":"Feature","geometry":{"type":"Point","coordinates":[-122.28125646,37.8025638]},"properties":{"id":2716170,"type":"Inlet"}},{"type":"Feature","geometry":{"type":"Point","coordinates":[-122.2845307,37.80174313]},"properties":{"id":2715219,"type":"Inlet"}},{"type":"Feature","geometry":{"type":"Point","coordinates":[-122.28358558,37.80166953]},"properties":{"id":2716204,"type":"Inlet"}},{"type":"Feature","geometry":{"type":"Point","coordinates":[-122.28005884,37.80170496]},"properties":{"id":2716205,"type":"Inlet"}},{"type":"Feature","geometry":{"type":"Point","coordinates":[-122.28442478,37.80151332]},"properties":{"id":2715224,"type":"Inlet"}},{"type":"Feature","geometry":{"type":"Point","coordinates":[-122.27715215,37.80161215]},"properties":{"id":2716210,"type":"Inlet"}},{"type":"Feature","geometry":{"type":"Point","coordinates":[-122.27900569,37.80152927]},"properties":{"id":2716211,"type":"Inlet"}},{"type":"Feature","geometry":{"type":"Point","coordinates":[-122.28355718,37.80135202]},"properties":{"id":2716215,"type":"Inlet"}},{"type":"Feature","geometry":{"type":"Point","coordinates":[-122.27878638,37.80140622]},"properties":{"id":2716216,"type":"Inlet"}},{"type":"Feature","geometry":{"type":"Point","coordinates":[-122.28495265,37.8095027]},"properties":{"id":2815126,"type":"Inlet"}},{"type":"Feature","geometry":{"type":"Point","coordinates":[-122.27839489,37.80955919]},"properties":{"id":2816121,"type":"Inlet"}},{"type":"Feature","geometry":{"type":"Point","coordinates":[-122.27691814,37.80955398]},"properties":{"id":2816122,"type":"Inlet"}},{"type":"Feature","geometry":{"type":"Point","coordinates":[-122.28030014,37.80945834]},"properties":{"id":2816126,"type":"Inlet"}},{"type":"Feature","geometry":{"type":"Point","coordinates":[-122.28286238,37.80925139]},"properties":{"id":2816130,"type":"Inlet"}},{"type":"Feature","geometry":{"type":"Point","coordinates":[-122.28387229,37.80913587]},"properties":{"id":2815140,"type":"Inlet"}},{"type":"Feature","geometry":{"type":"Point","coordinates":[-122.27537293,37.80921947]},"properties":{"id":2816132,"type":"Inlet"}},{"type":"Feature","geometry":{"type":"Point","coordinates":[-122.27544365,37.8092088]},"properties":{"id":2816133,"type":"Inlet"}},{"type":"Feature","geometry":{"type":"Point","coordinates":[-122.27467826,37.80796708]},"properties":{"id":2816181,"type":"Inlet"}},{"type":"Feature","geometry":{"type":"Point","coordinates":[-122.27836011,37.80789033]},"properties":{"id":2816182,"type":"Inlet"}},{"type":"Feature","geometry":{"type":"Point","coordinates":[-122.27804536,37.80775843]},"properties":{"id":2816185,"type":"Inlet"}},{"type":"Feature","geometry":{"type":"Point","coordinates":[-122.27777948,37.80771574]},"properties":{"id":2816188,"type":"Inlet"}},{"type":"Feature","geometry":{"type":"Point","coordinates":[-122.28411713,37.80895156]},"properties":{"id":2815149,"type":"Inlet"}},{"type":"Feature","geometry":{"type":"Point","coordinates":[-122.27398331,37.80909274]},"properties":{"id":2816134,"type":"Inlet"}},{"type":"Feature","geometry":{"type":"Point","coordinates":[-122.27663632,37.80898963]},"properties":{"id":2816136,"type":"Inlet"}},{"type":"Feature","geometry":{"type":"Point","coordinates":[-122.27849776,37.8089396]},"properties":{"id":2816137,"type":"Inlet"}},{"type":"Feature","geometry":{"type":"Point","coordinates":[-122.2766901,37.80892221]},"properties":{"id":2816140,"type":"Inlet"}},{"type":"Feature","geometry":{"type":"Point","coordinates":[-122.28192216,37.80880895]},"properties":{"id":2816144,"type":"Inlet"}},{"type":"Feature","geometry":{"type":"Point","coordinates":[-122.27880031,37.80885126]},"properties":{"id":2816145,"type":"Inlet"}},{"type":"Feature","geometry":{"type":"Point","coordinates":[-122.27855927,37.80883361]},"properties":{"id":2816146,"type":"Inlet"}},{"type":"Feature","geometry":{"type":"Point","coordinates":[-122.28293274,37.80872157]},"properties":{"id":2816147,"type":"Inlet"}},{"type":"Feature","geometry":{"type":"Point","coordinates":[-122.28057324,37.80871944]},"properties":{"id":2816148,"type":"Inlet"}},{"type":"Feature","geometry":{"type":"Point","coordinates":[-122.27446752,37.80878262]},"properties":{"id":2816150,"type":"Inlet"}},{"type":"Feature","geometry":{"type":"Point","coordinates":[-122.2742544,37.80870205]},"properties":{"id":2816152,"type":"Inlet"}},{"type":"Feature","geometry":{"type":"Point","coordinates":[-122.28445861,37.80212878]},"properties":{"id":2715204,"type":"Inlet"}},{"type":"Feature","geometry":{"type":"Point","coordinates":[-122.28324326,37.80211832]},"properties":{"id":2716188,"type":"Inlet"}},{"type":"Feature","geometry":{"type":"Point","coordinates":[-122.27837729,37.80217601]},"properties":{"id":2716189,"type":"Inlet"}},{"type":"Feature","geometry":{"type":"Point","coordinates":[-122.28088228,37.80204619]},"properties":{"id":2716191,"type":"Inlet"}},{"type":"Feature","geometry":{"type":"Point","coordinates":[-122.27397642,37.80206718]},"properties":{"id":2716195,"type":"Inlet"}},{"type":"Feature","geometry":{"type":"Point","coordinates":[-122.27406347,37.80194363]},"properties":{"id":2716200,"type":"Inlet"}},{"type":"Feature","geometry":{"type":"Point","coordinates":[-122.27783809,37.80850044]},"properties":{"id":2816160,"type":"Inlet"}},{"type":"Feature","geometry":{"type":"Point","coordinates":[-122.27432682,37.80854508]},"properties":{"id":2816162,"type":"Inlet"}},{"type":"Feature","geometry":{"type":"Point","coordinates":[-122.275923,37.80847848]},"properties":{"id":2816165,"type":"Inlet"}},{"type":"Feature","geometry":{"type":"Point","coordinates":[-122.27764053,37.80841896]},"properties":{"id":2816166,"type":"Inlet"}},{"type":"Feature","geometry":{"type":"Point","coordinates":[-122.27745536,37.80834896]},"properties":{"id":2816168,"type":"Inlet"}},{"type":"Feature","geometry":{"type":"Point","coordinates":[-122.27891434,37.80826378]},"properties":{"id":2816169,"type":"Inlet"}},{"type":"Feature","geometry":{"type":"Point","coordinates":[-122.281619,37.80598636]},"properties":{"id":2816229,"type":"Inlet"}},{"type":"Feature","geometry":{"type":"Point","coordinates":[-122.27597841,37.80601856]},"properties":{"id":2816230,"type":"Inlet"}},{"type":"Feature","geometry":{"type":"Point","coordinates":[-122.27953926,37.80595321]},"properties":{"id":2816231,"type":"Inlet"}},{"type":"Feature","geometry":{"type":"Point","coordinates":[-122.27920626,37.80585385]},"properties":{"id":2816234,"type":"Inlet"}},{"type":"Feature","geometry":{"type":"Point","coordinates":[-122.27967443,37.8058152]},"properties":{"id":2816236,"type":"Inlet"}},{"type":"Feature","geometry":{"type":"Point","coordinates":[-122.2830447,37.80574301]},"properties":{"id":2816238,"type":"Inlet"}},{"type":"Feature","geometry":{"type":"Point","coordinates":[-122.27904032,37.80579181]},"properties":{"id":2816239,"type":"Inlet"}},{"type":"Feature","geometry":{"type":"Point","coordinates":[-122.28299625,37.80559953]},"properties":{"id":2816242,"type":"Inlet"}},{"type":"Feature","geometry":{"type":"Point","coordinates":[-122.27905848,37.80561024]},"properties":{"id":2816243,"type":"Inlet"}},{"type":"Feature","geometry":{"type":"Point","coordinates":[-122.28209176,37.8055617]},"properties":{"id":2816244,"type":"Inlet"}},{"type":"Feature","geometry":{"type":"Point","coordinates":[-122.28066354,37.8055558]},"properties":{"id":2816246,"type":"Inlet"}},{"type":"Feature","geometry":{"type":"Point","coordinates":[-122.28178379,37.80542352]},"properties":{"id":2816248,"type":"Inlet"}},{"type":"Feature","geometry":{"type":"Point","coordinates":[-122.27470126,37.80559829]},"properties":{"id":2816249,"type":"Inlet"}},{"type":"Feature","geometry":{"type":"Point","coordinates":[-122.28076191,37.80539912]},"properties":{"id":2816253,"type":"Inlet"}},{"type":"Feature","geometry":{"type":"Point","coordinates":[-122.2800693,37.80539036]},"properties":{"id":2816254,"type":"Inlet"}},{"type":"Feature","geometry":{"type":"Point","coordinates":[-122.27634224,37.80530852]},"properties":{"id":2816257,"type":"Inlet"}},{"type":"Feature","geometry":{"type":"Point","coordinates":[-122.27966498,37.80520418]},"properties":{"id":2816260,"type":"Inlet"}},{"type":"Feature","geometry":{"type":"Point","coordinates":[-122.27979795,37.80519118]},"properties":{"id":2816261,"type":"Inlet"}},{"type":"Feature","geometry":{"type":"Point","coordinates":[-122.27343359,37.80528431]},"properties":{"id":2816262,"type":"Inlet"}},{"type":"Feature","geometry":{"type":"Point","coordinates":[-122.28230179,37.80508127]},"properties":{"id":2816267,"type":"Inlet"}},{"type":"Feature","geometry":{"type":"Point","coordinates":[-122.27376392,37.80519969]},"properties":{"id":2816269,"type":"Inlet"}},{"type":"Feature","geometry":{"type":"Point","coordinates":[-122.27849348,37.80702651]},"properties":{"id":2816205,"type":"Inlet"}},{"type":"Feature","geometry":{"type":"Point","coordinates":[-122.27833453,37.8069671]},"properties":{"id":2816207,"type":"Inlet"}},{"type":"Feature","geometry":{"type":"Point","coordinates":[-122.27384267,37.80697432]},"properties":{"id":2816210,"type":"Inlet"}},{"type":"Feature","geometry":{"type":"Point","coordinates":[-122.28153021,37.80683098]},"properties":{"id":2816211,"type":"Inlet"}},{"type":"Feature","geometry":{"type":"Point","coordinates":[-122.27393872,37.80693716]},"properties":{"id":2816212,"type":"Inlet"}},{"type":"Feature","geometry":{"type":"Point","coordinates":[-122.28126266,37.80671828]},"properties":{"id":2816213,"type":"Inlet"}},{"type":"Feature","geometry":{"type":"Point","coordinates":[-122.27908705,37.80673051]},"properties":{"id":2816216,"type":"Inlet"}},{"type":"Feature","geometry":{"type":"Point","coordinates":[-122.2754392,37.80677862]},"properties":{"id":2816217,"type":"Inlet"}},{"type":"Feature","geometry":{"type":"Point","coordinates":[-122.27924079,37.80650021]},"properties":{"id":2816220,"type":"Inlet"}},{"type":"Feature","geometry":{"type":"Point","coordinates":[-122.28136728,37.80646124]},"properties":{"id":2816222,"type":"Inlet"}},{"type":"Feature","geometry":{"type":"Point","coordinates":[-122.27715347,37.80651245]},"properties":{"id":2816224,"type":"Inlet"}},{"type":"Feature","geometry":{"type":"Point","coordinates":[-122.28019629,37.80628253]},"properties":{"id":2816226,"type":"Inlet"}},{"type":"Feature","geometry":{"type":"Point","coordinates":[-122.27536888,37.80499631]},"properties":{"id":2816278,"type":"Inlet"}},{"type":"Feature","geometry":{"type":"Point","coordinates":[-122.27509511,37.80491253]},"properties":{"id":2816281,"type":"Inlet"}},{"type":"Feature","geometry":{"type":"Point","coordinates":[-122.27890366,37.80471162]},"properties":{"id":2716101,"type":"Inlet"}},{"type":"Feature","geometry":{"type":"Point","coordinates":[-122.28048255,37.80450513]},"properties":{"id":2716104,"type":"Inlet"}},{"type":"Feature","geometry":{"type":"Point","coordinates":[-122.28006174,37.80449706]},"properties":{"id":2716105,"type":"Inlet"}},{"type":"Feature","geometry":{"type":"Point","coordinates":[-122.28221447,37.8044]},"properties":{"id":2716111,"type":"Inlet"}},{"type":"Feature","geometry":{"type":"Point","coordinates":[-122.27419759,37.80451401]},"properties":{"id":2716112,"type":"Inlet"}},{"type":"Feature","geometry":{"type":"Point","coordinates":[-122.27989477,37.80439177]},"properties":{"id":2716113,"type":"Inlet"}},{"type":"Feature","geometry":{"type":"Point","coordinates":[-122.27401255,37.80444881]},"properties":{"id":2716115,"type":"Inlet"}},{"type":"Feature","geometry":{"type":"Point","coordinates":[-122.28475972,37.80421387]},"properties":{"id":2715115,"type":"Inlet"}},{"type":"Feature","geometry":{"type":"Point","coordinates":[-122.28454895,37.80415869]},"properties":{"id":2715119,"type":"Inlet"}},{"type":"Feature","geometry":{"type":"Point","coordinates":[-122.27705352,37.80414483]},"properties":{"id":2716117,"type":"Inlet"}},{"type":"Feature","geometry":{"type":"Point","coordinates":[-122.28366836,37.80381836]},"properties":{"id":2716123,"type":"Inlet"}},{"type":"Feature","geometry":{"type":"Point","coordinates":[-122.282753,37.80383151]},"properties":{"id":2716124,"type":"Inlet"}},{"type":"Feature","geometry":{"type":"Point","coordinates":[-122.28046167,37.80385102]},"properties":{"id":2716125,"type":"Inlet"}},{"type":"Feature","geometry":{"type":"Point","coordinates":[-122.28067731,37.80382029]},"properties":{"id":2716126,"type":"Inlet"}},{"type":"Feature","geometry":{"type":"Point","coordinates":[-122.28241197,37.80368628]},"properties":{"id":2716131,"type":"Inlet"}},{"type":"Feature","geometry":{"type":"Point","coordinates":[-122.27585837,37.80367802]},"properties":{"id":2716133,"type":"Inlet"}},{"type":"Feature","geometry":{"type":"Point","coordinates":[-122.2804393,37.80356775]},"properties":{"id":2716135,"type":"Inlet"}},{"type":"Feature","geometry":{"type":"Point","coordinates":[-122.28190487,37.80347282]},"properties":{"id":2716136,"type":"Inlet"}},{"type":"Feature","geometry":{"type":"Point","coordinates":[-122.27751105,37.80344505]},"properties":{"id":2716138,"type":"Inlet"}},{"type":"Feature","geometry":{"type":"Point","coordinates":[-122.28482378,37.80327829]},"properties":{"id":2715165,"type":"Inlet"}},{"type":"Feature","geometry":{"type":"Point","coordinates":[-122.28259521,37.80317123]},"properties":{"id":2716146,"type":"Inlet"}},{"type":"Feature","geometry":{"type":"Point","coordinates":[-122.28046919,37.80120503]},"properties":{"id":2716221,"type":"Inlet"}},{"type":"Feature","geometry":{"type":"Point","coordinates":[-122.27448487,37.80125196]},"properties":{"id":2716223,"type":"Inlet"}},{"type":"Feature","geometry":{"type":"Point","coordinates":[-122.27340349,37.8010526]},"properties":{"id":2716230,"type":"Inlet"}},{"type":"Feature","geometry":{"type":"Point","coordinates":[-122.28464485,37.80087547]},"properties":{"id":2715243,"type":"Inlet"}},{"type":"Feature","geometry":{"type":"Point","coordinates":[-122.27500494,37.80085134]},"properties":{"id":2716234,"type":"Inlet"}},{"type":"Feature","geometry":{"type":"Point","coordinates":[-122.27918975,37.80068665]},"properties":{"id":2716239,"type":"Inlet"}},{"type":"Feature","geometry":{"type":"Point","coordinates":[-122.27382848,37.80036706]},"properties":{"id":2716250,"type":"Inlet"}},{"type":"Feature","geometry":{"type":"Point","coordinates":[-122.27358699,37.8002567]},"properties":{"id":2716254,"type":"Inlet"}},{"type":"Feature","geometry":{"type":"Point","coordinates":[-122.28397395,37.8000396]},"properties":{"id":2715272,"type":"Inlet"}},{"type":"Feature","geometry":{"type":"Point","coordinates":[-122.28416866,37.800003]},"properties":{"id":2715273,"type":"Inlet"}},{"type":"Feature","geometry":{"type":"Point","coordinates":[-122.28372379,37.79992939]},"properties":{"id":2715275,"type":"Inlet"}},{"type":"Feature","geometry":{"type":"Point","coordinates":[-122.27964881,37.79997997]},"properties":{"id":2716258,"type":"Inlet"}},{"type":"Feature","geometry":{"type":"Point","coordinates":[-122.28306582,37.79970311]},"properties":{"id":2716266,"type":"Inlet"}},{"type":"Feature","geometry":{"type":"Point","coordinates":[-122.28292256,37.7996476]},"properties":{"id":2716268,"type":"Inlet"}},{"type":"Feature","geometry":{"type":"Point","coordinates":[-122.28290796,37.79961623]},"properties":{"id":2716270,"type":"Inlet"}},{"type":"Feature","geometry":{"type":"Point","coordinates":[-122.27826426,37.79948033]},"properties":{"id":2716277,"type":"Inlet"}},{"type":"Feature","geometry":{"type":"Point","coordinates":[-122.27399032,37.79953371]},"properties":{"id":2716278,"type":"Inlet"}},{"type":"Feature","geometry":{"type":"Point","coordinates":[-122.28009025,37.7993333]},"properties":{"id":2716279,"type":"Inlet"}},{"type":"Feature","geometry":{"type":"Point","coordinates":[-122.28409167,37.799176]},"properties":{"id":2615102,"type":"Inlet"}},{"type":"Feature","geometry":{"type":"Point","coordinates":[-122.2756272,37.79929551]},"properties":{"id":2616103,"type":"Inlet"}},{"type":"Feature","geometry":{"type":"Point","coordinates":[-122.28191957,37.79918069]},"properties":{"id":2616104,"type":"Inlet"}},{"type":"Feature","geometry":{"type":"Point","coordinates":[-122.28173096,37.79911075]},"properties":{"id":2616105,"type":"Inlet"}},{"type":"Feature","geometry":{"type":"Point","coordinates":[-122.27470094,37.79899495]},"properties":{"id":2616109,"type":"Inlet"}},{"type":"Feature","geometry":{"type":"Point","coordinates":[-122.28080683,37.79875594]},"properties":{"id":2616112,"type":"Inlet"}},{"type":"Feature","geometry":{"type":"Point","coordinates":[-122.28054248,37.79870363]},"properties":{"id":2616115,"type":"Inlet"}},{"type":"Feature","geometry":{"type":"Point","coordinates":[-122.27772794,37.79869527]},"properties":{"id":2616117,"type":"Inlet"}},{"type":"Feature","geometry":{"type":"Point","coordinates":[-122.27429086,37.79871064]},"properties":{"id":2616121,"type":"Inlet"}},{"type":"Feature","geometry":{"type":"Point","coordinates":[-122.28453953,37.79850999]},"properties":{"id":2615111,"type":"Inlet"}},{"type":"Feature","geometry":{"type":"Point","coordinates":[-122.2843586,37.79847152]},"properties":{"id":2615112,"type":"Inlet"}},{"type":"Feature","geometry":{"type":"Point","coordinates":[-122.28236535,37.79849961]},"properties":{"id":2616127,"type":"Inlet"}},{"type":"Feature","geometry":{"type":"Point","coordinates":[-122.28217162,37.79843249]},"properties":{"id":2616128,"type":"Inlet"}},{"type":"Feature","geometry":{"type":"Point","coordinates":[-122.28246088,37.79836906]},"properties":{"id":2616130,"type":"Inlet"}},{"type":"Feature","geometry":{"type":"Point","coordinates":[-122.28224276,37.79829545]},"properties":{"id":2616132,"type":"Inlet"}},{"type":"Feature","geometry":{"type":"Point","coordinates":[-122.27960461,37.79828035]},"properties":{"id":2616133,"type":"Inlet"}},{"type":"Feature","geometry":{"type":"Point","coordinates":[-122.27933864,37.79823218]},"properties":{"id":2616136,"type":"Inlet"}},{"type":"Feature","geometry":{"type":"Point","coordinates":[-122.27512199,37.79829023]},"properties":{"id":2616137,"type":"Inlet"}},{"type":"Feature","geometry":{"type":"Point","coordinates":[-122.28114891,37.79808055]},"properties":{"id":2616140,"type":"Inlet"}},{"type":"Feature","geometry":{"type":"Point","coordinates":[-122.27475183,37.79815503]},"properties":{"id":2616142,"type":"Inlet"}},{"type":"Feature","geometry":{"type":"Point","coordinates":[-122.28094155,37.79802257]},"properties":{"id":2616143,"type":"Inlet"}},{"type":"Feature","geometry":{"type":"Point","coordinates":[-122.28474656,37.79790599]},"properties":{"id":2615120,"type":"Inlet"}},{"type":"Feature","geometry":{"type":"Point","coordinates":[-122.2827442,37.79784219]},"properties":{"id":2616151,"type":"Inlet"}},{"type":"Feature","geometry":{"type":"Point","coordinates":[-122.28260091,37.7977853]},"properties":{"id":2616154,"type":"Inlet"}},{"type":"Feature","geometry":{"type":"Point","coordinates":[-122.27834911,37.79781997]},"properties":{"id":2616155,"type":"Inlet"}},{"type":"Feature","geometry":{"type":"Point","coordinates":[-122.28260537,37.79775502]},"properties":{"id":2616156,"type":"Inlet"}},{"type":"Feature","geometry":{"type":"Point","coordinates":[-122.27818721,37.79770842]},"properties":{"id":2616160,"type":"Inlet"}},{"type":"Feature","geometry":{"type":"Point","coordinates":[-122.27554179,37.79760545]},"properties":{"id":2616164,"type":"Inlet"}},{"type":"Feature","geometry":{"type":"Point","coordinates":[-122.27980054,37.79750073]},"properties":{"id":2616165,"type":"Inlet"}},{"type":"Feature","geometry":{"type":"Point","coordinates":[-122.27718127,37.79733285]},"properties":{"id":2616172,"type":"Inlet"}},{"type":"Feature","geometry":{"type":"Point","coordinates":[-122.28136127,37.79726497]},"properties":{"id":2616173,"type":"Inlet"}},{"type":"Feature","geometry":{"type":"Point","coordinates":[-122.27700916,37.79730111]},"properties":{"id":2616175,"type":"Inlet"}},{"type":"Feature","geometry":{"type":"Point","coordinates":[-122.27535629,37.79730334]},"properties":{"id":2616176,"type":"Inlet"}},{"type":"Feature","geometry":{"type":"Point","coordinates":[-122.28174188,37.79711364]},"properties":{"id":2616177,"type":"Inlet"}},{"type":"Feature","geometry":{"type":"Point","coordinates":[-122.27878247,37.79712467]},"properties":{"id":2616179,"type":"Inlet"}},{"type":"Feature","geometry":{"type":"Point","coordinates":[-122.28156703,37.79704006]},"properties":{"id":2616180,"type":"Inlet"}},{"type":"Feature","geometry":{"type":"Point","coordinates":[-122.28489213,37.79697742]},"properties":{"id":2615125,"type":"Inlet"}},{"type":"Feature","geometry":{"type":"Point","coordinates":[-122.27861303,37.79705993]},"properties":{"id":2616182,"type":"Inlet"}},{"type":"Feature","geometry":{"type":"Point","coordinates":[-122.28038164,37.79690414]},"properties":{"id":2616185,"type":"Inlet"}},{"type":"Feature","geometry":{"type":"Point","coordinates":[-122.27597897,37.79692452]},"properties":{"id":2616188,"type":"Inlet"}},{"type":"Feature","geometry":{"type":"Point","coordinates":[-122.28022957,37.79684188]},"properties":{"id":2616189,"type":"Inlet"}},{"type":"Feature","geometry":{"type":"Point","coordinates":[-122.27568541,37.79673529]},"properties":{"id":2616192,"type":"Inlet"}},{"type":"Feature","geometry":{"type":"Point","coordinates":[-122.27610119,37.79667959]},"properties":{"id":2616194,"type":"Inlet"}},{"type":"Feature","geometry":{"type":"Point","coordinates":[-122.27744689,37.79657141]},"properties":{"id":2616196,"type":"Inlet"}},{"type":"Feature","geometry":{"type":"Point","coordinates":[-122.27316725,37.7965967]},"properties":{"id":2616197,"type":"Inlet"}},{"type":"Feature","geometry":{"type":"Point","coordinates":[-122.27345509,37.79654636]},"properties":{"id":2616199,"type":"Inlet"}},{"type":"Feature","geometry":{"type":"Point","coordinates":[-122.27920933,37.79644732]},"properties":{"id":2616200,"type":"Inlet"}},{"type":"Feature","geometry":{"type":"Point","coordinates":[-122.27499696,37.79646273]},"properties":{"id":2616202,"type":"Inlet"}},{"type":"Feature","geometry":{"type":"Point","coordinates":[-122.27904864,37.79638657]},"properties":{"id":2616204,"type":"Inlet"}},{"type":"Feature","geometry":{"type":"Point","coordinates":[-122.27639511,37.79623223]},"properties":{"id":2616207,"type":"Inlet"}},{"type":"Feature","geometry":{"type":"Point","coordinates":[-122.27615758,37.79607031]},"properties":{"id":2616209,"type":"Inlet"}},{"type":"Feature","geometry":{"type":"Point","coordinates":[-122.27804274,37.79601237]},"properties":{"id":2616211,"type":"Inlet"}},{"type":"Feature","geometry":{"type":"Point","coordinates":[-122.27784171,37.79592888]},"properties":{"id":2616215,"type":"Inlet"}},{"type":"Feature","geometry":{"type":"Point","coordinates":[-122.27361342,37.79592869]},"properties":{"id":2616216,"type":"Inlet"}},{"type":"Feature","geometry":{"type":"Point","coordinates":[-122.27500082,37.79561047]},"properties":{"id":2616220,"type":"Inlet"}},{"type":"Feature","geometry":{"type":"Point","coordinates":[-122.27695068,37.79550831]},"properties":{"id":2616224,"type":"Inlet"}},{"type":"Feature","geometry":{"type":"Point","coordinates":[-122.27845877,37.79531665]},"properties":{"id":2616228,"type":"Inlet"}},{"type":"Feature","geometry":{"type":"Point","coordinates":[-122.27401867,37.7952146]},"properties":{"id":2616230,"type":"Inlet"}},{"type":"Feature","geometry":{"type":"Point","coordinates":[-122.27567224,37.79502696]},"properties":{"id":2616234,"type":"Inlet"}},{"type":"Feature","geometry":{"type":"Point","coordinates":[-122.27539606,37.79491301]},"properties":{"id":2616238,"type":"Inlet"}},{"type":"Feature","geometry":{"type":"Point","coordinates":[-122.27319276,37.79476556]},"properties":{"id":2616243,"type":"Inlet"}},{"type":"Feature","geometry":{"type":"Point","coordinates":[-122.27740289,37.79466097]},"properties":{"id":2616244,"type":"Inlet"}},{"type":"Feature","geometry":{"type":"Point","coordinates":[-122.27440541,37.79459555]},"properties":{"id":2616246,"type":"Inlet"}},{"type":"Feature","geometry":{"type":"Point","coordinates":[-122.27694521,37.79448452]},"properties":{"id":2616249,"type":"Inlet"}},{"type":"Feature","geometry":{"type":"Point","coordinates":[-122.27419597,37.79452248]},"properties":{"id":2616250,"type":"Inlet"}},{"type":"Feature","geometry":{"type":"Point","coordinates":[-122.27601976,37.79436043]},"properties":{"id":2616255,"type":"Inlet"}},{"type":"Feature","geometry":{"type":"Point","coordinates":[-122.27460397,37.7943584]},"properties":{"id":2616256,"type":"Inlet"}},{"type":"Feature","geometry":{"type":"Point","coordinates":[-122.27426188,37.79423857]},"properties":{"id":2616262,"type":"Inlet"}},{"type":"Feature","geometry":{"type":"Point","coordinates":[-122.2761785,37.79419529]},"properties":{"id":2616264,"type":"Inlet"}},{"type":"Feature","geometry":{"type":"Point","coordinates":[-122.27305181,37.79197965]},"properties":{"id":2516106,"type":"Inlet"}},{"type":"Feature","geometry":{"type":"Point","coordinates":[-122.25603292,37.80905716]},"properties":{"id":2818129,"type":"Inlet"}},{"type":"Feature","geometry":{"type":"Point","coordinates":[-122.25500211,37.80821687]},"properties":{"id":2818136,"type":"Inlet"}},{"type":"Feature","geometry":{"type":"Point","coordinates":[-122.25521223,37.80773237]},"properties":{"id":2818141,"type":"Inlet"}},{"type":"Feature","geometry":{"type":"Point","coordinates":[-122.28182643,37.80878704]},"properties":{"id":2816286,"type":"Inlet"}},{"type":"Feature","geometry":{"type":"Point","coordinates":[-122.26089695,37.79897798]},"properties":{"id":2618139,"type":"Inlet"}},{"type":"Feature","geometry":{"type":"Point","coordinates":[-122.26428722,37.79662345]},"properties":{"id":2617185,"type":"Inlet"}},{"type":"Feature","geometry":{"type":"Point","coordinates":[-122.26635581,37.79569015]},"properties":{"id":2617209,"type":"Inlet"}},{"type":"Feature","geometry":{"type":"Point","coordinates":[-122.27677775,37.80507282]},"properties":{"id":2816293,"type":"Inlet"}},{"type":"Feature","geometry":{"type":"Point","coordinates":[-122.27668078,37.807231]},"properties":{"id":2816295,"type":"Inlet"}},{"type":"Feature","geometry":{"type":"Point","coordinates":[-122.27623884,37.80786018]},"properties":{"id":2816297,"type":"Inlet"}},{"type":"Feature","geometry":{"type":"Point","coordinates":[-122.27895905,37.80817933]},"properties":{"id":2816290,"type":"Inlet"}},{"type":"Feature","geometry":{"type":"Point","coordinates":[-122.28182643,37.80878704]},"properties":{"id":2816299,"type":"Inlet"}},{"type":"Feature","geometry":{"type":"Point","coordinates":[-122.28239683,37.80716535]},"properties":{"id":2816285,"type":"Inlet"}},{"type":"Feature","geometry":{"type":"Point","coordinates":[-122.2835852,37.80727374]},"properties":{"id":2816284,"type":"Inlet"}},{"type":"Feature","geometry":{"type":"Point","coordinates":[-122.28276648,37.80922263]},"properties":{"id":9000927,"type":"Inlet"}},{"type":"Feature","geometry":{"type":"Point","coordinates":[-122.26267722,37.79916557]},"properties":{"id":9000936,"type":"Inlet"}},{"type":"Feature","geometry":{"type":"Point","coordinates":[-122.25582892,37.79311223]},"properties":{"id":2518121,"type":"Inlet"}},{"type":"Feature","geometry":{"type":"Point","coordinates":[-122.27234737,37.79277515]},"properties":{"id":2517135,"type":"Inlet"}},{"type":"Feature","geometry":{"type":"Point","coordinates":[-122.25796703,37.79292243]},"properties":{"id":2518126,"type":"Inlet"}},{"type":"Feature","geometry":{"type":"Point","coordinates":[-122.27281379,37.79476851]},"properties":{"id":2617241,"type":"Inlet"}},{"type":"Feature","geometry":{"type":"Point","coordinates":[-122.25756783,37.79170399]},"properties":{"id":2518158,"type":"Inlet"}},{"type":"Feature","geometry":{"type":"Point","coordinates":[-122.26480901,37.80969321]},"properties":{"id":2817135,"type":"Inlet"}},{"type":"Feature","geometry":{"type":"Point","coordinates":[-122.27079959,37.80233261]},"properties":{"id":2717153,"type":"Inlet"}},{"type":"Feature","geometry":{"type":"Point","coordinates":[-122.26652355,37.80674219]},"properties":{"id":2817229,"type":"Inlet"}},{"type":"Feature","geometry":{"type":"Point","coordinates":[-122.27160895,37.80346313]},"properties":{"id":2717128,"type":"Inlet"}},{"type":"Feature","geometry":{"type":"Point","coordinates":[-122.27308816,37.80002523]},"properties":{"id":2717232,"type":"Inlet"}},{"type":"Feature","geometry":{"type":"Point","coordinates":[-122.26480732,37.79913587]},"properties":{"id":2617126,"type":"Inlet"}},{"type":"Feature","geometry":{"type":"Point","coordinates":[-122.26901345,37.79848915]},"properties":{"id":2617138,"type":"Inlet"}},{"type":"Feature","geometry":{"type":"Point","coordinates":[-122.26582546,37.79413104]},"properties":{"id":2617274,"type":"Inlet"}},{"type":"Feature","geometry":{"type":"Point","coordinates":[-122.26509552,37.79378488]},"properties":{"id":2517107,"type":"Inlet"}},{"type":"Feature","geometry":{"type":"Point","coordinates":[-122.26222671,37.79970675]},"properties":{"id":2618265,"type":"Inlet"}},{"type":"Feature","geometry":{"type":"Point","coordinates":[-122.26840958,37.79476855]},"properties":{"id":2617324,"type":"Inlet"}},{"type":"Feature","geometry":{"type":"Point","coordinates":[-122.26935867,37.79316779]},"properties":{"id":2517198,"type":"Inlet"}},{"type":"Feature","geometry":{"type":"Point","coordinates":[-122.26653366,37.79150728]},"properties":{"id":2517210,"type":"Inlet"}},{"type":"Feature","geometry":{"type":"Point","coordinates":[-122.27481084,37.80069632]},"properties":{"id":2716240,"type":"Inlet"}},{"type":"Feature","geometry":{"type":"Point","coordinates":[-122.27502731,37.80743444]},"properties":{"id":2816196,"type":"Inlet"}},{"type":"Feature","geometry":{"type":"Point","coordinates":[-122.27630598,37.80299693]},"properties":{"id":2716158,"type":"Inlet"}},{"type":"Feature","geometry":{"type":"Point","coordinates":[-122.28313305,37.80156582]},"properties":{"id":2716208,"type":"Inlet"}},{"type":"Feature","geometry":{"type":"Point","coordinates":[-122.27813367,37.80949446]},"properties":{"id":2816125,"type":"Inlet"}},{"type":"Feature","geometry":{"type":"Point","coordinates":[-122.27564956,37.80942201]},"properties":{"id":2816129,"type":"Inlet"}},{"type":"Feature","geometry":{"type":"Point","coordinates":[-122.28272423,37.80205681]},"properties":{"id":2716190,"type":"Inlet"}},{"type":"Feature","geometry":{"type":"Point","coordinates":[-122.27457984,37.80812238]},"properties":{"id":2816174,"type":"Inlet"}},{"type":"Feature","geometry":{"type":"Point","coordinates":[-122.27642773,37.80331098]},"properties":{"id":2716141,"type":"Inlet"}},{"type":"Feature","geometry":{"type":"Point","coordinates":[-122.27788112,37.80104493]},"properties":{"id":2716227,"type":"Inlet"}},{"type":"Feature","geometry":{"type":"Point","coordinates":[-122.27635661,37.79874684]},"properties":{"id":2616116,"type":"Inlet"}},{"type":"Feature","geometry":{"type":"Point","coordinates":[-122.28457941,37.79786457]},"properties":{"id":2615121,"type":"Inlet"}},{"type":"Feature","geometry":{"type":"Point","coordinates":[-122.2799963,37.79758018]},"properties":{"id":2616162,"type":"Inlet"}},{"type":"Feature","geometry":{"type":"Point","coordinates":[-122.28163545,37.79736659]},"properties":{"id":2616169,"type":"Inlet"}},{"type":"Feature","geometry":{"type":"Point","coordinates":[-122.27759329,37.79668594]},"properties":{"id":2616193,"type":"Inlet"}},{"type":"Feature","geometry":{"type":"Point","coordinates":[-122.27517893,37.79567646]},"properties":{"id":2616218,"type":"Inlet"}},{"type":"Feature","geometry":{"type":"Point","coordinates":[-122.27582753,37.79428298]},"properties":{"id":2616259,"type":"Inlet"}},{"type":"Feature","geometry":{"type":"Point","coordinates":[-122.25629846,37.80689078]},"properties":{"id":2818152,"type":"Inlet"}},{"type":"Feature","geometry":{"type":"Point","coordinates":[-122.25593442,37.80760076]},"properties":{"id":2818142,"type":"Inlet"}},{"type":"Feature","geometry":{"type":"Point","coordinates":[-122.2695453,37.79930865]},"properties":{"id":2617113,"type":"Inlet"}}]}
